0 STARLINK-1413
1 45689U 20035AJ  26019.33335648  .00051155  00000-0  29473-2 0  9999
2 45689  53.0733 278.1464 0001567  62.4795   4.4597 15.11928925  5859
0 STARLINK-1337
1 45582U 20025BD  26019.33335648  .00039181  00000-0  19388-2 0  9999
2 45582  53.0534 297.6985 0001645  91.0820 217.8028 15.17451683  5855
0 FENGYUN 1C DEB
1 30749U 99025ATK 26019.33588476 -.00000157  00000-0 -77053-4 0  9991
2 30749  98.8806  50.0461 0057998 128.9309 231.7046 13.99833580964922
0 COSMOS 2170
1 21784U 91077F   26019.33831421  .00000012  00000-0  10342-4 0  9996
2 21784  82.6101   3.7096 0001359 278.8483 198.1396 12.62582771575291
0 ONEWEB-0098
1 45442U 20020U   26019.34001717 -.00000541  00000-0 -15626-2 0  9998
2 45442  87.8826  50.6924 0001746  95.8046 264.3281 13.11417284283131
0 DELTA 1 DEB
1 10765U 76077BN  26019.33802410 -.00000031  00000-0  11277-3 0  9991
2 10765 102.0060 225.0165 0130603 268.8994 265.5271 12.16523743198459
0 SL-8 R/B
1 11546U 79084J   26019.34938316 -.00000124  00000-0 -99445-3 0  9993
2 11546  74.0197 220.9420 0126516 265.1099 269.8453 12.22314168 66660
