0 CZ-6A DEB
1 54586U 22151MN  26067.99031706  .00002099  00000-0  89655-3 0  9991
2 54586  98.7641  88.5451 0060978 267.8154  91.6042 14.25102880171641
0 SL-8 R/B
1 07594U 74105B   26067.99369874  .00000181  00000-0  16146-3 0  9999
2 07594  82.9430  73.0367 0017453  49.4500 339.2177 13.79232918574969
0 SL-14 R/B
1 16792U 86046B   26067.99906617  .00000592  00000-0  65398-4 0  9998
2 16792  82.4782  80.8345 0021917 227.7734 132.1623 14.85589640126308
0 KINEIS-1C
1 60081U 24114C   26067.99322730  .00001615  00000-0  21836-3 0  9999
2 60081  97.9946  92.4548 0002209 118.4373 241.7062 14.80406736 92555
0 COSMOS 1992
1 19769U 89005A   26067.99479311  .00000184  00000-0  72507-4 0  9996
2 19769  74.0444  72.1833 0023226 301.1246  58.7628 14.35809863942461
0 COSMOS 2506
1 40699U 15029A   26067.99849348  .00000029  00000-0  17019-4 0  9993
2 40699  98.0606 112.5517 0008510 103.4917 256.7229 14.54347903568327
0 NOVA 1
1 12458U 81044A   26067.99718131  .00000049  00000-0  94592-4 0  9993
2 12458  89.8421  90.1265 0012959 220.6305 155.2858 13.23287274163273
