0 STARLINK-1298
1 45413U 20019BF  26019.33335648  .00226476  00000-0  15559-2 0  9996
2 45413  53.0435 303.0557 0008827 114.6665 234.0160 15.73438723  5707
0 SL-3 DEB
1 21126U 64053C   26019.34418867  .00000628  00000-0  12328-3 0  9994
2 21126  65.0758 232.9362 0072393 281.6503 258.9171 14.69459193244072
0 STARLINK-1318
1 45416U 20019BJ  26019.33335648  .00160914  00000-0  85755-3 0  9999
2 45416  53.0459 290.5161 0004782 126.8804 150.3992 15.79438367  6044
0 SL-24 R/B
1 27610U 02058F   26019.34349459  .00000056  00000-0  48386-4 0  9994
2 27610  64.5575 233.1834 0267964 116.5588  52.8952 14.29484137203630
0 DMSP 5D-2 F13 DEB
1 40402U 95015P   26019.33178861  .00001469  00000-0  53340-3 0  9993
2 40402  98.6668  44.2355 0145001 116.6141 244.9980 14.29072952565732
0 CZ-6A DEB
1 54473U 22151GZ  26019.33570105  .00000367  00000-0  19937-3 0  9994
2 54473  98.8540  46.0600 0031540 275.9037  83.8544 14.18182869164697
0 DELTA 1 DEB
1 12166U 78026F   26019.34938461  .00000400  00000-0  21304-3 0  9992
2 12166  98.9087  54.3452 0036191 276.7914 106.5582 14.18821911318722
0 CZ-4B DEB
1 29215U 02024F   26019.34156468  .00000260  00000-0  30906-3 0  9991
2 29215  98.7518  57.1363 0243050 283.5682  92.4391 13.63939199159996
0 ONEWEB-0715
1 55176U 23004AN  26019.33407551 -.00000325  00000-0 -95159-3 0  9993
2 55176  87.8822  50.6938 0001717 119.3458 240.7842 13.11417328146356
0 DELTA 1 DEB
1 10765U 76077BN  26019.33802410 -.00000031  00000-0  11277-3 0  9991
2 10765 102.0060 225.0165 0130603 268.8994 265.5271 12.16523743198459
0 SL-16 R/B
1 23343U 94074B   26019.34098213  .00000491  00000-0  72497-4 0  9994
2 23343  97.7166  52.1447 0007281  32.9993 337.6303 14.79337801679953
0 FENGYUN 1C DEB
1 30222U 99025WF  26019.33021162  .00000106  00000-0  93684-4 0  9991
2 30222  98.8368  56.6930 0036493 291.0984  84.0573 14.04086608973665
0 CZ-4 DEB
1 23261U 90081CS  26019.33172073  .00009271  00000-0  15246-2 0  9995
2 23261  98.2491  47.1463 0016980  57.4476 322.6809 14.70711841820735


