0 DELTA 1 DEB
1 12217U 78026BJ  26019.33856219  .00000722  00000-0  33358-3 0  9997
2 12217  98.9540  41.9101 0020060 211.4723 161.9695 14.24029884319219
0 KITSAT 3
1 25756U 99029A   26019.33625932  .00000286  00000-0  76583-4 0  9994
2 25756  98.6358  49.9806 0013246   3.1353 356.9925 14.55703529413371
0 ONEWEB-0399
1 50479U 21132L   26019.34256009 -.00000515  00000-0 -14888-2 0  9995
2 50479  87.8819  50.6909 0002338  91.0161 269.1235 13.11417897196096
0 NOAA 6
1 11416U 79057A   26019.33888299  .00000313  00000-0  12427-3 0  9995
2 11416  98.5805  49.7802 0009477 345.9103  14.1817 14.35387063429605

