0 OBJECT A
1 61238U 24174A   26068.01437883  .00006174  00000-0  29694-3 0  9995
2 61238  97.4523  77.1573 0001410  95.3672 264.7723 15.19151742 80476
0 SJ-12
1 36596U 10027A   26068.01292278  .00007625  00000-0  40359-3 0  9996
2 36596  97.7697  83.3687 0008526  84.0616 276.1587 15.15700648859686
0 COSMOS 1375 DEB
1 16210U 82055M   26067.98408271 -.00000022  00000-0  61756-4 0  9994
2 16210  65.8361 327.3330 0020761 150.9825 300.3743 13.74580204 26145
0 GEESAT 6-05
1 65717U 25214F   26067.99792403  .00002924  00000-0  38307-3 0  9995
2 65717  49.9789  52.4841 0012578 188.6301 171.4422 14.83000551 24631
0 NOAA 9
1 15427U 84123A   26068.00220787  .00000139  00000-0  92329-4 0  9997
2 15427  99.1097  92.2721 0013663 273.8265 105.4909 14.17038762129235
0 DIWATA 2B
1 43678U 18084H   26067.98843961  .00005225  00000-0  42516-3 0  9993
2 43678  98.1039 259.9967 0011728 129.0268 231.2000 14.99960966401196
0 YUNHAI 2-1D
1 43912U 18112D   26067.98376041  .00000174  00000-0  13179-3 0  9997
2 43912  50.0122 352.7767 0015785 353.4363   6.6343 14.28985590373254
