0 SL-8 R/B
1 14966U 84043B   26003.34341189  .00000060  00000-0  47076-4 0  9993
2 14966  82.9747 311.3696 0016217 358.3159 157.6815 13.74862614 88646
0 SKYSAT C7
1 42991U 17068E   26003.33516773  .00019576  00000-0  61762-3 0  9996
2 42991  97.4299 139.4619 0006290 344.1580  15.9464 15.32884085457089
0 OBJECT B
1 54252U 22155B   26003.33853544  .00059222  00000-0  11470-2 0  9994
2 54252  97.6054 137.6869 0005074 237.6968 122.3790 15.47507237174139
0 OBJECT B
1 60746U 24153B   26003.33713006  .00027704  00000-0  10136-2 0  9995
2 60746  97.6570 137.3498 0011606  25.3333 334.8472 15.27960484 74735
