STARLETTE               
1 07646U 75010A   26014.17954375 -.00000134  00000+0  49382-5 0  9999
2 07646  49.8267 352.4920 0205606 274.2653  83.4771 13.82348064573233
LAGEOS-1                
1 08820U 76039A   26014.04172000 -.00000018  00000+0  00000+0 0  9998
2 08820 109.8298 126.5620 0044669 335.2704 145.8880  6.38664964903291
AJISAI-(EGS)            
1 16908U 86061A   26014.19085829 -.00000077  00000+0  14510-3 0  9998
2 16908  50.0082 260.9338 0011306 147.3733 298.9226 12.44514891461212
COSMOS-1989-(ETALON-1)  
1 19751U 89001C   26014.37203524 -.00000034  00000-0  00000-0 0  9998
2 19751  64.8534  77.4584 0023447 217.3558 156.1600  2.13156114288091
COSMOS-2024-(ETALON-2)  
1 20026U 89039C   26014.16370145 -.00000077  00000+0  00000+0 0  9992
2 20026  65.0300 315.8425 0020451 213.9000 130.6773  2.13204581285212
STELLA                  
1 22824U 93061B   26014.20196456 -.00000036  00000-0  37902-5 0  9999
2 22824  98.7959  77.7472 0005825 334.2447 118.2007 14.27465332682808
LARETS                  
1 27944U 03042F   26014.18375785  .00000045  00000+0  18256-4 0  9996
2 27944  98.3923 173.3304 0012825 151.8031 208.3868 14.63830993190832
LARES                   
1 38077U 12006A   26014.22706970 -.00000043  00000+0 -28580-4 0  9995
2 38077  69.4875 195.2227 0009574 202.5339 157.5268 12.54932277637757