TDRS 3                  
1 19548U 88091B   26003.06296562 -.00000299  00000+0  00000+0 0  9999
2 19548  12.7273 342.0934 0043734 345.0187 109.1757  1.00264075123736
FLTSATCOM 8 (USA 46)    
1 20253U 89077A   26002.84377322 -.00000366  00000+0  00000+0 0  9993
2 20253  12.4668 352.1556 0008461 302.2937 237.4564  1.00278536258900
SKYNET 4C               
1 20776U 90079A   26003.11074444  .00000125  00000+0  00000+0 0  9999
2 20776  13.3936 350.9394 0003714 282.3216 262.7270  1.00268489129232
TDRS 5                  
1 21639U 91054B   26003.14237797  .00000083  00000+0  00000+0 0  9990
2 21639  14.0912 354.9964 0013879 261.9923  89.4139  1.00275538126059
TDRS 6                  
1 22314U 93003B   26003.10681094 -.00000298  00000+0  00000+0 0  9995
2 22314  14.1789 358.2815 0007205 215.5651 241.3088  1.00265380120751
UFO 2 (USA 95)          
1 22787U 93056A   26003.18111822  .00000123  00000+0  00000+0 0  9998
2 22787  11.8374   4.4478 0007327 299.4203 252.8510  1.00271199116895
USA 99 (MILSTAR-1 1)    
1 22988U 94009A   26003.22688463 -.00000207  00000+0  00000+0 0  9999
2 22988  17.3718  29.4852 0004169 265.9957 159.0696  1.00273021 31300
UFO 4 (USA 108)         
1 23467U 95003A   26002.76711537 -.00000023  00000+0  00000+0 0  9990
2 23467   9.6652  13.7716 0003201 264.9851 272.0077  1.00273182113293
TDRS 7                  
1 23613U 95035B   26002.97909697 -.00000240  00000+0  00000+0 0  9998
2 23613  13.4454 349.3252 0003834  47.1396 147.7050  1.00276959111594
USA 115 (MILSTAR-1 2)   
1 23712U 95060A   26003.10696913 -.00000023  00000+0  00000+0 0  9995
2 23712  14.0124   4.9676 0003675 294.2741  82.0107  1.00273591 31236
INMARSAT 3-F1           
1 23839U 96020A   26003.11863117 -.00000017  00000+0  00000+0 0  9998
2 23839  10.2566  48.1354 0008342 221.1922 308.7878  0.99975000108603
INMARSAT 3-F2           
1 24307U 96053A   26003.02433723 -.00000286  00000+0  00000+0 0  9999
2 24307   9.4828  55.6015 0005975 226.4678 146.5107  0.99995121107278
INMARSAT 3-F3           
1 24674U 96070A   26003.23274632  .00000114  00000+0  00000+0 0  9999
2 24674   9.9613  51.2227 0008378 224.5478 121.5705  0.99987418106250
AMC-3                   
1 24936U 97050A   26003.24363339 -.00000264  00000+0  00000+0 0  9990
2 24936   7.7421  65.9726 0003380 218.0614 194.5288  1.00270005 50780
USA 134                 
1 25019U 97065A   26003.13877259 -.00000066  00000+0  00000+0 0  9998
2 25019  12.5870  22.9430 0007087 274.4703 102.9291  1.00272863 31301
INMARSAT 3-F5           
1 25153U 98006B   26002.98239162 -.00000294  00000+0  00000+0 0  9993
2 25153   9.3235  54.8871 0005534 235.1114 112.2062  1.00266313102231
SKYNET 4E               
1 25639U 99009B   26003.14939802  .00000042  00000+0  00000+0 0  9993
2 25639  11.9661   9.9822 0004840 256.5115 118.4170  0.99026302 49525
ABS-6                   
1 25924U 99053A   26003.20703172 -.00000115  00000+0  00000+0 0  9997
2 25924   0.0282 285.1980 0002323   4.7001  46.4659  1.00271457 96175
UFO 10 (USA 146)        
1 25967U 99063A   26002.88563346 -.00000190  00000+0  00000+0 0  9998
2 25967   9.8275  28.0750 0006694 255.7601 114.5859  1.00270641 95698
ASIASTAR                
1 26107U 00016A   26003.12495787 -.00000337  00000+0  00000+0 0  9999
2 26107   8.7456  59.9047 0005236 223.2960 329.5476  1.00272054 94260
USA 149 (DSP 20)        
1 26356U 00024A   26003.21405176  .00000091  00000+0  00000+0 0  9993
2 26356  13.0455  13.0093 0000860 230.7692 130.7507  1.00271998 31263
TDRS 8                  
1 26388U 00034A   26003.04964406 -.00000198  00000+0  00000+0 0  9995
2 26388  12.4219  32.7023 0004510 267.5288 265.0782  1.00268197 93526
NSS-11                  
1 26554U 00059A   26003.21041174  .00000027  00000+0  00000+0 0  9994
2 26554   1.7004  83.4181 0003310 197.4920  73.6651  1.00270745 39635
USA 153                 
1 26575U 00065A   26002.91683368 -.00000327  00000+0  00000+0 0  9991
2 26575  11.3395  36.7657 0001866 255.2273 274.9431  1.00277604 31270
AMC-6                   
1 26580U 00067A   26002.93477380  .00000093  00000+0  00000+0 0  9995
2 26580   0.0347 315.1040 0003055 322.5184  26.4227  1.00272240 92236
USA 157 (MILSTAR-2 2)   
1 26715U 01009A   26003.23093866  .00000107  00000+0  00000+0 0  9995
2 26715  11.3601  20.7649 0041331 185.6799 189.5093  1.00276289 31295
INTELSAT 10 (IS-10)     
1 26766U 01019A   26002.75705512  .00000065  00000+0  00000+0 0  9999
2 26766   8.6793  60.9437 0008435 233.5754 128.5450  0.99072915 43947
USA 159 (DSP 21)        
1 26880U 01033A   26003.16831093 -.00000301  00000+0  00000+0 0  9996
2 26880  12.6305  17.5842 0000897 267.5861 189.1521  1.00272614 31317
INTELSAT 902 (IS-902)   
1 26900U 01039A   26003.09427766 -.00000284  00000+0  00000+0 0  9995
2 26900   5.7005  73.8185 0004477 212.1204 160.6175  1.00271112 89044
USA 164 (MILSTAR-2 3)   
1 27168U 02001A   26003.25053867  .00000095  00000+0  00000+0 0  9996
2 27168  10.9822  22.8824 0097301   3.0376 186.1533  1.00267061 31300
INTELSAT 904 (IS-904)   
1 27380U 02007A   26003.06780671 -.00000227  00000+0  00000+0 0  9995
2 27380   6.5077  71.1818 0002732 256.4498 127.9883  1.00270205 50117
DIRECTV 5 (TEMPO 1)     
1 27426U 02023A   26003.24708682 -.00000057  00000+0  00000+0 0  9997
2 27426   4.4568  77.3931 0003831 218.9631 145.3475  1.00271675 86478
INTELSAT 905 (IS-905)   
1 27438U 02027A   26001.79296747  .00000097  00000+0  00000+0 0  9999
2 27438   6.3352  71.8197 0003077 214.3380 323.5498  1.00273229 49694
GALAXY 3C (G-3C)        
1 27445U 02030A   26003.25365748 -.00000151  00000+0  00000+0 0  9994
2 27445   3.3170  80.2649 0000947 104.7613 274.3057  1.00270849 44848
INTELSAT 906 (IS-906)   
1 27513U 02041A   26003.18822494  .00000012  00000+0  00000+0 0  9995
2 27513   5.3838  74.9765 0006123 209.2101 310.5249  1.00272350 85379
NIMIQ 2                 
1 27632U 02062A   26003.24735266 -.00000072  00000+0  00000+0 0  9994
2 27632   9.0656  58.6244 0006561 226.9275 157.1627  1.00270833 42535
USA 167                 
1 27691U 03008A   26003.24188247  .00000001  00000+0  00000+0 0  9992
2 27691  10.6334  44.8693 0005455 264.1738 118.9978  1.00273621  5121
USA 169 (MILSTAR-2 4)   
1 27711U 03012A   26002.84905992 -.00000200  00000+0  00000+0 0  9991
2 27711  12.0976  31.1650 0096200   1.6040 167.5136  1.00272541 31295
ASIASAT 4               
1 27718U 03014A   26003.25685083 -.00000222  00000+0  00000+0 0  9996
2 27718   4.2832  77.8469 0002888 202.7563  62.2950  1.00271640 43640
HELLAS-SAT 2            
1 27811U 03020A   26002.96016845 -.00000085  00000+0  00000+0 0  9995
2 27811   6.9438  69.8705 0010975 201.8112 166.5379  1.00270956 41195
THURAYA-2               
1 27825U 03026A   26003.18423824  .00000123  00000+0  00000+0 0  9992
2 27825   8.5805  32.6255 0003484 269.3890 271.1234  1.00272332 82696
OPTUS C1                
1 27831U 03028B   26002.97128138 -.00000152  00000+0  00000+0 0  9990
2 27831   6.4761  71.4262 0006179 214.3476 322.2606  1.00271807 51406
USA 170                 
1 27875U 03040A   26003.25166534  .00000122  00000+0  00000+0 0  9992
2 27875  10.1503  49.4945 0002446 233.8702 294.2250  1.00270048 31333
GALAXY 13 (HORIZONS-1)  
1 27954U 03044A   26003.23176912  .00000136  00000+0  00000+0 0  9998
2 27954   0.9920  86.2020 0001942 194.0141 116.0597  1.00270513 44919
YAMAL 202               
1 28089U 03053A   26002.53115350 -.00000080  00000+0  00000+0 0  9998
2 28089   5.9245  72.9691 0006977 195.8431 188.0698  1.00271321 81048
UFO 11 (USA 174)        
1 28117U 03057A   26003.11915117 -.00000105  00000+0  00000+0 0  9996
2 28117   8.7788  34.6131 0004533 240.1737 306.3903  1.00270031 80798
USA 176 (DSP 22)        
1 28158U 04004A   26003.12195024 -.00000163  00000+0  00000+0 0  9996
2 28158  11.8367  27.2679 0003749 245.9105 136.9752  1.00269990 31287
ABS-4 (MOBISAT-1)       
1 28184U 04007A   26002.68832801  .00000039  00000+0  00000+0 0  9990
2 28184   5.6230  74.0440 0005970 211.8798 125.2368  1.00275100 50678
EUTELSAT 7A             
1 28187U 04008A   26003.23580675  .00000102  00000+0  00000+0 0  9996
2 28187   5.4121  74.0013 0001435 231.9604 102.5719  1.00270850 79693
AMC-11                  
1 28252U 04017A   26003.24774507 -.00000045  00000+0  00000+0 0  9996
2 28252   0.0185  33.6846 0003375 256.6431 150.6290  1.00270822 79214
INTELSAT 10-02          
1 28358U 04022A   26003.09558649 -.00000006  00000+0  00000+0 0  9996
2 28358   0.0156  54.1264 0001710 264.6422 177.3937  1.00270636 78903
ANIK F2                 
1 28378U 04027A   26003.24774549 -.00000048  00000+0  00000+0 0  9995
2 28378   2.8592  81.7129 0001356 216.0258 143.1962  1.00271394 39604
AMC-15                  
1 28446U 04041A   26002.86942671 -.00000083  00000+0  00000+0 0  9996
2 28446   0.0197  31.9510 0002570 247.5281  30.9616  1.00271784 77644
NSS-10                  
1 28526U 05003A   26003.09670435 -.00000253  00000+0  00000+0 0  9995
2 28526   6.0381  72.4696 0003354 213.5423 174.0670  1.00271453 51501
XM-3 (RHYTHM)           
1 28626U 05008A   26003.24923866 -.00000110  00000+0  00000+0 0  9999
2 28626   0.2301  82.6098 0002737 267.5343 214.5167  0.98953641 40964
INMARSAT 4-F1           
1 28628U 05009A   26002.92550041  .00000034  00000+0  00000+0 0  9991
2 28628   4.9447  42.6592 0002634 248.2356 322.9332  1.00270155 76018
DIRECTV 8               
1 28659U 05019A   26003.24424912  .00000000  00000+0  00000+0 0  9992
2 28659   0.0263  38.8954 0003361 252.3145 140.5479  1.00270343 75412
GALAXY 28 (G-28)        
1 28702U 05022A   26003.23259854 -.00000275  00000+0  00000+0 0  9990
2 28702   2.8744  81.0327 0003061 169.6398 224.0357  1.00597193 50327
THAICOM 4               
1 28786U 05028A   26003.27055880 -.00000358  00000+0  00000+0 0  9997
2 28786   0.0468  79.3950 0002238 200.8056  39.5560  1.00271412 50595
ANIK F1R                
1 28868U 05036A   26003.24849285 -.00000074  00000+0  00000+0 0  9999
2 28868   3.8915  78.6579 0001659 222.1961 144.1717  1.00271678 44809
SYRACUSE 3A             
1 28885U 05041B   26003.18467157  .00000131  00000+0  00000+0 0  9994
2 28885   4.2219  77.9137 0003119 214.5023 283.0584  1.00270255 74098
INMARSAT 4-F2           
1 28899U 05044A   26003.25685083 -.00000260  00000+0  00000+0 0  9994
2 28899   4.8800  43.7434 0002661 242.9874  52.1115  1.00270770 73867
METEOSAT-9 (MSG-2)      
1 28912U 05049B   26003.18458491  .00000122  00000+0  00000+0 0  9994
2 28912   8.9876  55.7737 0003133 188.4395 330.6557  1.00272740  5348
EUTELSAT 174A           
1 28924U 05052A   26003.06732418  .00000010  00000+0  00000+0 0  9998
2 28924   3.8010  78.5976 0006338 206.5632  15.7392  1.00271771 50676
ECHOSTAR 10             
1 28935U 06003A   26003.24708672 -.00000051  00000+0  00000+0 0  9998
2 28935   0.0197 324.6461 0001384 301.3251 175.6441  1.00271314 72818
SPAINSAT                
1 28945U 06007A   26002.79915059 -.00000211  00000+0  00000+0 0  9999
2 28945   0.1372  92.2201 0005099 179.2430  88.4661  1.00271927 72560
JCSAT-5A                
1 29045U 06010A   26003.27307214 -.00000324  00000+0  00000+0 0  9992
2 29045   0.6823  86.4523 0001170 258.9670 347.8547  1.00269622 72112
ASTRA 1KR               
1 29055U 06012A   26003.25062534  .00000122  00000+0  00000+0 0  9991
2 29055   0.0513  62.1097 0005796 197.0034 312.9298  1.00268606 44043
GALAXY 16 (G-16)        
1 29236U 06023A   26003.25139412 -.00000122  00000+0  00000+0 0  9995
2 29236   0.0374 143.2846 0003063 149.4391 161.6296  1.00270511 71320
EUTELSAT HOTBIRD 13B    
1 29270U 06032A   26003.25339868  .00000158  00000+0  00000+0 0  9998
2 29270   1.2362  84.1667 0003601 203.0824 299.9318  1.00272600 45656
JCSAT-3A                
1 29272U 06033A   26003.24558606 -.00000341  00000+0  00000+0 0  9998
2 29272   0.0123   6.4325 0002397 283.2944  29.5573  1.00270127 46082
SYRACUSE 3B             
1 29273U 06033B   26003.24750531  .00000023  00000+0  00000+0 0  9996
2 29273   2.4763  82.1761 0004382 202.3815 270.7078  1.00272328 71026
KOREASAT 5 (MUGUNGWHA 5)
1 29349U 06034A   26003.26925878 -.00000355  00000+0  00000+0 0  9990
2 29349   1.3578  85.2147 0002213 222.1764   5.4940  1.00271831 39661
DIRECTV 9S              
1 29494U 06043A   26003.25054322 -.00000111  00000+0  00000+0 0  9997
2 29494   1.9955  82.9684 0003432 207.2398 161.6469  1.00270712 49735
OPTUS D1                
1 29495U 06043B   26003.20564505 -.00000182  00000+0  00000+0 0  9990
2 29495   2.6102  81.7447 0003802 202.8819  44.1807  1.00272559 70468
BADR-4                  
1 29526U 06051A   26003.25201201  .00000147  00000+0  00000+0 0  9990
2 29526   1.5796  82.9695 0008155 218.1260 278.7279  1.00269389 49612
WILDBLUE-1              
1 29643U 06054A   26003.24774568 -.00000047  00000+0  00000+0 0  9993
2 29643   2.3777  82.6327 0001770 197.8469 160.3724  1.00271074 52135
SKYNET 5A               
1 30794U 07007B   26003.26570543 -.00000272  00000+0  00000+0 0  9990
2 30794   4.8818  75.7650 0003929 216.0979   1.8561  1.00273318 69046
ANIK F3                 
1 31102U 07009A   26003.24362122  .00000002  00000+0  00000+0 0  9996
2 31102   0.7719  85.9644 0002957 199.0490 146.8451  1.00271267 44906
ASTRA 1L                
1 31306U 07016A   26003.24802531  .00000008  00000+0  00000+0 0  9999
2 31306   0.8959  82.7386 0002379 195.1469 280.1197  1.00076758 43331
GALAXY 17 (G-17)        
1 31307U 07016B   26003.25805949 -.00000204  00000+0  00000+0 0  9996
2 31307   2.5541  82.0289 0005644 182.3598 206.3898  1.00269909 68159
ZHONGXING-6B            
1 31800U 07031A   26003.23589190 -.00000187  00000+0  00000+0 0  9996
2 31800   2.0118  81.1940 0010461 219.9298 191.3486  0.99059954 67769
DIRECTV 10              
1 31862U 07032A   26003.02992999 -.00000098  00000+0  00000+0 0  9998
2 31862   0.0086  91.0905 0000609 152.2646 127.2658  1.00269961 43935
INTELSAT 11 (IS-11)     
1 32253U 07044B   26003.27281214 -.00000260  00000+0  00000+0 0  9995
2 32253   3.1361  80.7241 0008648 176.4949  74.9971  0.99050950 66814
WGS F1 (USA 195)        
1 32258U 07046A   26003.09575101 -.00000263  00000+0  00000+0 0  9996
2 32258   0.1333  86.1436 0001116 239.2590 129.2577  1.00266142 50683
SKYNET 5B               
1 32294U 07056B   26002.89516685  .00000141  00000+0  00000+0 0  9990
2 32294   4.8311  75.5034 0003807 208.7922 165.6005  1.00274826 66545
ASTRA 4A                
1 32299U 07057A   26003.24776531  .00000036  00000+0  00000+0 0  9997
2 32299   0.0241 319.6452 0002832 317.7789 279.4458  1.00270160 49998
HORIZONS-2              
1 32388U 07063B   26003.23225186 -.00000251  00000+0  00000+0 0  9997
2 32388   2.1771  82.7130 0004933 201.2904 188.6697  1.00270853 66162
THURAYA-3               
1 32404U 08001A   26003.12365786 -.00000301  00000+0  00000+0 0  9994
2 32404   5.7094  35.4763 0002767 242.8797 327.4077  1.00271558 65830
THOR 5                  
1 32487U 08006A   26003.24672530 -.00000005  00000+0  00000+0 0  9992
2 32487   0.0553 246.0865 0002654  38.3163 266.5328  1.00272134 65666
AMC-14                  
1 32708U 08011A   26003.18198490  .00000102  00000+0  00000+0 0  9992
2 32708  23.8080  22.5087 0042895 350.5572 187.7359  1.00295554 66511
DIRECTV 11              
1 32729U 08013A   26003.10834162 -.00000122  00000+0  00000+0 0  9995
2 32729   0.0372 204.3190 0000656 349.2865 208.9434  1.00277220 43930
ICO G1                  
1 32763U 08016A   26003.25486094 -.00000172  00000+0  00000+0 0  9994
2 32763   5.5011  36.5324 0002543 236.7575 188.4791  1.00272085 64897
VINASAT-1               
1 32767U 08018A   26003.27298547 -.00000324  00000+0  00000+0 0  9995
2 32767   0.0247 308.2652 0001988 350.5087  34.3427  1.00271598 64938
STAR ONE C2             
1 32768U 08018B   26003.23258230 -.00000273  00000+0  00000+0 0  9990
2 32768   0.8192  83.9379 0002971 206.3502 191.2959  1.00270725 65005
AMOS-3                  
1 32794U 08022A   26003.24603197 -.00000031  00000+0  00000+0 0  9993
2 32794   0.0321  87.0707 0003801 161.6956 298.5429  1.00270765 80687
GALAXY 18 (G-18)        
1 32951U 08024A   26003.24306677  .00000029  00000+0  00000+0 0  9999
2 32951   0.0158  66.0589 0003276 217.4838 143.8117  1.00271423 44194
ZHONGXING-9             
1 33051U 08028A   26003.12253119 -.00000245  00000+0  00000+0 0  9995
2 33051   0.3463  88.1404 0010179 195.6209 315.5126  1.00272295 64387
SKYNET 5C               
1 33055U 08030A   26003.17201816 -.00000139  00000+0  00000+0 0  9996
2 33055   3.3666  79.0250 0004510 212.6959 215.1744  1.00271000 64307
TURKSAT 3A              
1 33056U 08030B   26003.20253418  .00000150  00000+0  00000+0 0  9998
2 33056   0.0473  76.0609 0003086 207.8916 293.7710  1.00271180 50702
INTELSAT 25 (IS-25)     
1 33153U 08034A   26003.24057193 -.00000222  00000+0  00000+0 0  9997
2 33153   2.2828  82.3976 0005225 197.2236 238.3467  1.00272086 64041
ECHOSTAR 11             
1 33207U 08035A   26003.24787421 -.00000053  00000+0  00000+0 0  9994
2 33207   0.5787  86.2082 0002792 190.1833 165.7153  1.00270452 49557
SUPERBIRD-C2            
1 33274U 08038A   26003.27385215 -.00000304  00000+0  00000+0 0  9998
2 33274   1.9361  83.4025 0002818 132.6792 121.4390  1.00271107104073
AMC-21                  
1 33275U 08038B   26003.06645751 -.00000210  00000+0  00000+0 0  9996
2 33275   2.5227  82.2283 0000815 151.1516  62.6371  0.99166842 63839
INMARSAT 4-F3           
1 33278U 08039A   26003.25174654 -.00000139  00000+0  00000+0 0  9990
2 33278   4.1527  30.9219 0002828 254.9013 169.6924  1.00272792 44894
NIMIQ 4                 
1 33373U 08044A   26003.25928940 -.00000216  00000+0  00000+0 0  9993
2 33373   0.0218  56.6447 0002210 246.9318 170.6474  1.00270545 63330
GALAXY 19 (G-19)        
1 33376U 08045A   26003.25213484 -.00000135  00000+0  00000+0 0  9997
2 33376   0.0439 258.5616 0003015  25.0129 173.0593  1.00271052 63253
ASTRA 1M                
1 33436U 08057A   26003.25062534  .00000124  00000+0  00000+0 0  9992
2 33436   0.0351  55.1853 0002090 183.9328 333.2106  1.00274806 44084
EUTELSAT HOTBIRD 13C    
1 33459U 08065A   26003.23684523 -.00000281  00000+0  00000+0 0  9997
2 33459   2.5267  81.1771 0003741 203.6667 212.9703  1.00269256 45697
EXPRESS-AM44            
1 33595U 09007A   26003.24464529 -.00000088  00000+0  00000+0 0  9993
2 33595   3.0385  80.4522 0004858 197.2968 262.1759  1.00270737 50637
NSS-9                   
1 33749U 09008A   26003.21179841  .00000075  00000+0  00000+0 0  9997
2 33749   0.8352  84.2381 0002236 194.0556  83.8443  1.00271339 61862
TELSTAR 11N             
1 34111U 09009A   26003.23944525 -.00000247  00000+0  00000+0 0  9995
2 34111   0.0048  92.7050 0002775 184.2380 234.5686  1.00269426 44590
WGS F2 (USA 204)        
1 34713U 09017A   26003.18692493  .00000072  00000+0  00000+0 0  9995
2 34713   0.0186  43.7770 0000413 245.9132 297.9070  1.00270975 43964
SES-7 (PROTOSTAR 2)     
1 34941U 09027A   26003.11503262 -.00000340  00000+0  00000+0 0  9996
2 34941   0.0101  15.3045 0002188 243.9789 353.1259  1.00271882 60973
MEASAT-3A               
1 35362U 09032A   26003.20720506 -.00000106  00000+0  00000+0 0  9992
2 35362   0.0262 339.3132 0003418 311.6542  46.4718  1.00270583  6375
GOES 14                 
1 35491U 09033A   26003.24306766  .00000051  00000+0  00000+0 0  9996
2 35491   1.2595  85.1558 0001092 209.0783 132.8692  1.00098366  4939
FM-5                    
1 35493U 09034A   26002.99905948 -.00000195  00000+0  00000+0 0  9997
2 35493   0.0178 305.2020 0001126 239.1258 191.8055  1.00270646 44984
TERRESTAR-1             
1 35496U 09035A   26003.24746666 -.00000056  00000+0  00000+0 0  9996
2 35496   5.0403  48.8450 0002679 240.7509 151.3602  1.00271667 60487
ASIASAT 5               
1 35696U 09042A   26003.26665877 -.00000303  00000+0  00000+0 0  9997
2 35696   0.0440 271.1122 0001431 352.8473  35.4104  1.00274175 60051
JCSAT-12 (JCSAT-RA)     
1 35755U 09044A   26003.05865747 -.00000323  00000+0  00000+0 0  9992
2 35755   0.0184  58.8290 0002255 225.8935 331.1232  1.00269565 59957
OPTUS D3                
1 35756U 09044B   26002.84983992 -.00000140  00000+0  00000+0 0  9999
2 35756   0.8838 270.1107 0004101  24.9907 269.4420  1.00269903 59900
NIMIQ 5                 
1 35873U 09050A   26003.23242521 -.00000253  00000+0  00000+0 0  9991
2 35873   0.0140  60.7489 0003026 219.2463 193.8271  1.00269943 59699
AMAZONAS 2              
1 35942U 09054A   26003.23467855 -.00000280  00000+0  00000+0 0  9991
2 35942   1.3880  85.3274 0003646 193.4471 207.7713  1.00272478 59532
COMSATBW-1              
1 35943U 09054B   26003.11663781  .00000030  00000+0  00000+0 0  9997
2 35943   0.0116 351.6588 0003421 300.1162 275.9852  1.00268689 59656
NSS-12                  
1 36032U 09058A   26003.18683826  .00000076  00000+0  00000+0 0  9990
2 36032   0.0543  59.0047 0005044 218.2012 309.8657  1.00272450 59263
THOR 6                  
1 36033U 09058B   26003.24672530 -.00000006  00000+0  00000+0 0  9992
2 36033   0.0205  76.5259 0002021 212.1585 262.1572  1.00271037 59355
INTELSAT 14 (IS-14)     
1 36097U 09064A   26003.23797191 -.00000269  00000+0  00000+0 0  9990
2 36097   0.0087  42.7553 0003020 249.0237 211.7476  1.00270627 58950
EUTELSAT 36B            
1 36101U 09065A   26003.25686537  .00000116  00000+0  00000+0 0  9990
2 36101   0.0792  57.9824 0005806 223.4646 324.4143  1.00268769 59051
INTELSAT 15 (IS-15)     
1 36106U 09067A   26003.13864310 -.00000180  00000+0  00000+0 0  9993
2 36106   0.0172  10.5382 0002627 291.6539 295.6331  1.00269938 39570
WGS F3 (USA 211)        
1 36108U 09068A   26003.19091162 -.00000114  00000+0  00000+0 0  9996
2 36108   0.2332  86.7191 0001044 274.6206 248.4145  1.00268834 44949
DIRECTV 12              
1 36131U 09075A   26003.25354748 -.00000099  00000+0  00000+0 0  9991
2 36131   0.0134  77.0119 0000802 245.7082 128.7266  1.00269835 44900
BEIDOU-2 G1             
1 36287U 10001A   26003.25685083 -.00000279  00000+0  00000+0 0  9993
2 36287   3.9062  60.7881 0004448 252.2896  22.7113  1.00273143 58518
SDO                     
1 36395U 10005A   26003.24989546 -.00000099  00000+0  00000+0 0  9997
2 36395  34.3051  88.8567 0000771 148.9852 212.7354  1.00268459 58415
INTELSAT 16 (IS-16)     
1 36397U 10006A   26003.22162331 -.00000240  00000+0  00000+0 0  9991
2 36397   0.0113  27.5026 0002308 252.4417 186.4884  1.00270865 58006
EWS-G2 (GOES 15)        
1 36411U 10008A   26003.11637781  .00000042  00000+0  00000+0 0  9993
2 36411   0.8657  86.0143 0005834 183.8738 296.0863  1.00271410 57982
ECHOSTAR 14             
1 36499U 10010A   26002.93798046  .00000006  00000+0  00000+0 0  9993
2 36499   0.0123  28.6127 0002095 255.6308  37.0909  1.00270282 44895
SES-1                   
1 36516U 10016A   26003.25066159 -.00000110  00000+0  00000+0 0  9995
2 36516   0.0281 310.5798 0002714 331.2116 170.3127  1.00270446 57386
ASTRA 3B                
1 36581U 10021A   26003.25149200  .00000140  00000+0  00000+0 0  9994
2 36581   1.0426  85.7901 0002004 204.9573 286.1469  1.00271580 57219
COMSATBW-2              
1 36582U 10021B   26003.09003455  .00000093  00000+0  00000+0 0  9995
2 36582   0.0808 116.7389 0003335 177.9836 213.5885  1.00272520 57308
BEIDOU-2 G3             
1 36590U 10024A   26003.13864310 -.00000134  00000+0  00000+0 0  9994
2 36590   4.1234  62.1233 0005412 305.9221 224.2708  1.00270125 57117
BADR-5                  
1 36592U 10025A   26003.25201201  .00000149  00000+0  00000+0 0  9999
2 36592   0.0639 108.3739 0001962 122.4642 348.7235  1.00270851 51568
COMS 1                  
1 36744U 10032A   26002.98698368 -.00000343  00000+0  00000+0 0  9996
2 36744   4.3905  77.7421 0001188 199.0254 309.3243  1.00272443 49430
ARABSAT-5A              
1 36745U 10032B   26003.18155156  .00000158  00000+0  00000+0 0  9996
2 36745   0.0607  41.2589 0002696 244.8957 272.5409  1.00275499 56996
ECHOSTAR 15             
1 36792U 10034A   26003.24424873  .00000004  00000+0  00000+0 0  9992
2 36792   0.0475 273.9207 0002660 341.8657 176.1874  1.00269964 56667
BEIDOU-2 IGSO-1         
1 36828U 10036A   25363.86987282 -.00000041  00000+0  00000+0 0  9990
2 36828  54.2895 164.4935 0051607 215.8351 139.2797  1.00270697 56391
NILESAT 201             
1 36830U 10037A   26003.24542530 -.00000054  00000+0  00000+0 0  9995
2 36830   0.0204 204.5787 0004496  67.4635 272.1619  1.00270526 56715
RASCOM-QAF 1R           
1 36831U 10037B   26003.17609152  .00000023  00000+0  00000+0 0  9997
2 36831   0.0133  67.9856 0007175 212.2011 248.9107  1.00272232 56652
AEHF-1 (USA 214)        
1 36868U 10039A   26002.89612020  .00000146  00000+0  00000+0 0  9991
2 36868   7.8144  70.1768 0004961 203.8024 181.1389  1.00275702 52007
XM-5                    
1 37185U 10053A   26003.01003715 -.00000018  00000+0  00000+0 0  9999
2 37185   0.0664 267.3777 0002143 255.0799 188.5966  1.00271368 55829
BSAT-3B                 
1 37207U 10056B   26003.26865212  .00000000  00000+0  00000+0 0  9992
2 37207   0.0187 253.2114 0004239  11.8998  44.3452  1.00268971 50448
BEIDOU-2 G4             
1 37210U 10057A   26003.27861884 -.00000111  00000+0  00000+0 0  9993
2 37210   3.2364  69.8498 0010883 196.5691  96.8390  1.00270248 55632
SKYTERRA 1              
1 37218U 10061A   26003.25038588 -.00000118  00000+0  00000+0 0  9998
2 37218   4.7738  50.9259 0004206 197.0623 203.6963  1.00270998 55546
HYLAS 1                 
1 37237U 10065A   26003.23121186 -.00000235  00000+0  00000+0 0  9998
2 37237   5.2255  75.0709 0003076 223.2207 168.7896  1.00270792  5238
INTELSAT 17 (IS-17)     
1 37238U 10065B   26003.18857161  .00000003  00000+0  00000+0 0  9994
2 37238   0.0131  69.9954 0002368 213.1151 313.5838  1.00272138 51590
BEIDOU-2 IGSO-2         
1 37256U 10068A   26002.68705734 -.00000194  00000+0  00000+0 0  9991
2 37256  47.8453 273.8897 0048120 215.0955 328.9319  1.00278965 55139
EUTELSAT KA-SAT 9A      
1 37258U 10069A   26003.09003455  .00000067  00000+0  00000+0 0  9999
2 37258   0.0507 338.9130 0001383 204.2445 320.9626  1.00274139 42351
HISPASAT 30W-5          
1 37264U 10070A   26003.24091860 -.00000212  00000+0  00000+0 0  9995
2 37264   0.0406 104.6602 0003021 171.4491 243.4600  1.00269355 51530
KOREASAT 6              
1 37265U 10070B   26003.20720506 -.00000107  00000+0  00000+0 0  9991
2 37265   0.0168  63.0958 0002880 238.6055  35.6078  1.00271090 55119
BEIDOU-2 IGSO-3         
1 37384U 11013A   25363.69360016 -.00000178  00000+0  00000+0 0  9996
2 37384  62.1654  41.7546 0034563 188.2241 225.1911  1.00266181 53964
INTELSAT 28 (IS-28)     
1 37392U 11016A   26003.24057193 -.00000222  00000+0  00000+0 0  9990
2 37392   1.3800  84.7969 0004166 195.8373 237.1246  1.00270506 51635
YAHSAT 1A               
1 37393U 11016B   26003.25721205  .00000000  00000+0  00000+0 0  9997
2 37393   0.0208  38.6366 0003334 266.7751 302.5736  1.00269166 40759
SBIRS GEO-1 (USA 230)   
1 37481U 11019A   26003.18579825  .00000101  00000+0  00000+0 0  9991
2 37481   4.1736  53.0217 0002198 232.8134 295.6617  1.00272015 53740
TELSTAR 14R             
1 37602U 11021A   26003.23433189 -.00000276  00000+0  00000+0 0  9991
2 37602   0.0181  26.7520 0002417 287.7946 169.6700  1.00270285 54181
GSAT-8                  
1 37605U 11022A   26003.18640492  .00000087  00000+0  00000+0 0  9995
2 37605   1.7050  83.9438 0009164 189.7918 311.2661  1.00271146 51563
ST-2                    
1 37606U 11022B   26003.12166451 -.00000207  00000+0  00000+0 0  9993
2 37606   0.0163  48.6779 0002333 252.2899 293.5941  1.00270506 53623
ZHONGXING-10            
1 37677U 11026A   26003.04981741 -.00000185  00000+0  00000+0 0  9998
2 37677   0.6190  86.3348 0003239 187.5055 292.2372  1.00274966 53345
SES-3                   
1 37748U 11035A   26003.24989531 -.00000098  00000+0  00000+0 0  9997
2 37748   0.9009  84.9657 0003280 208.8437 156.0177  1.00270675 52948
KAZSAT-2                
1 37749U 11035B   26003.12131785 -.00000194  00000+0  00000+0 0  9992
2 37749   0.0057 119.0080 0001068 216.2327 257.6691  1.00276228 51742
BEIDOU-2 IGSO-4         
1 37763U 11038A   26002.90929362  .00000000  00000+0  00000+0 0  9997
2 37763  54.5876 167.1583 0150472 230.3471 127.2644  1.00277856 52989
ASTRA 1N                
1 37775U 11041A   26002.96536730  .00000125  00000+0  00000+0 0  9991
2 37775   0.0556   5.9754 0001733 308.0030 155.3893  1.00273325 42873
BSAT-3C (JCSAT-110R)    
1 37776U 11041B   26003.26865212 -.00000347  00000+0  00000+0 0  9993
2 37776   0.0169 336.7868 0000157  11.8144 320.9591  1.00272586 48812
PAKSAT-1R               
1 37779U 11042A   26003.18302490  .00000158  00000+0  00000+0 0  9991
2 37779   0.2619  86.0756 0001160 260.0869 220.5154  1.00274335 52825
SES-2                   
1 37809U 11049A   26003.25680205 -.00000192  00000+0  00000+0 0  9992
2 37809   0.0182  40.4497 0003206 240.9627 186.9154  1.00271078 52310
ARABSAT-5C              
1 37810U 11049B   26003.25079867  .00000127  00000+0  00000+0 0  9997
2 37810   0.0537  26.1704 0003273 239.2116 307.7776  1.00272841 52385
EUTELSAT 7 WEST A       
1 37816U 11051A   26003.24542530 -.00000056  00000+0  00000+0 0  9999
2 37816   0.0639  13.3478 0005040 225.7557 304.8047  1.00271269 52228
QUETZSAT 1              
1 37826U 11054A   26003.23155853 -.00000237  00000+0  00000+0 0  9991
2 37826   0.0113  19.8639 0003364 279.5132 169.8382  1.00269942 48220
INTELSAT 18 (IS-18)     
1 37834U 11056A   26003.21119175  .00000057  00000+0  00000+0 0  9996
2 37834   0.0170 305.9691 0002103 338.5501  74.3409  1.00271950 52154
EUTELSAT 16A            
1 37836U 11057A   26003.25001866  .00000108  00000+0  00000+0 0  9997
2 37836   0.0566  12.0818 0005485 272.0158 284.7828  1.00269597  5679
VIASAT-1                
1 37843U 11059A   26002.93876047  .00000000  00000+0  00000+0 0  9993
2 37843   0.0260  30.1618 0002344 250.8565  44.3802  1.00269813 45660
ASIASAT 7               
1 37933U 11069A   26003.11503262 -.00000329  00000+0  00000+0 0  9996
2 37933   0.0494 240.3384 0001775  17.9743 351.3514  1.00272909 43200
BEIDOU-2 IGSO-5         
1 37948U 11073A   26002.71483361 -.00000155  00000+0  00000+0 0  9996
2 37948  47.9798 273.5983 0109309 221.8769 318.2741  1.00285891 51478
LUCH-5A                 
1 37951U 11074B   26002.92333372 -.00000053  00000+0  00000+0 0  9997
2 37951   8.3333  76.2682 0005434 198.0850 327.5385  1.00269257 51398
NIGCOMSAT 1R            
1 38014U 11077A   26003.25521869  .00000149  00000+0  00000+0 0  9993
2 38014   0.0093 118.5286 0004362 184.3129 294.3910  1.00271983 51302
WGS F4 (USA 233)        
1 38070U 12003A   26003.12166451 -.00000210  00000+0  00000+0 0  9993
2 38070   0.0168  50.1989 0000875 251.2789 293.4622  1.00271189 42497
SES-4                   
1 38087U 12007A   26003.10669633 -.00000164  00000+0  00000+0 0  9991
2 38087   0.0187  51.9507 0002299 228.6460 198.5581  1.00271168 50571
BEIDOU-2 G5             
1 38091U 12008A   26003.18709826  .00000059  00000+0  00000+0 0  9996
2 38091   3.1611  70.6218 0013712 232.7478 285.4954  1.00271537 50712
MUOS-1                  
1 38093U 12009A   26003.25162101 -.00000127  00000+0  00000+0 0  9993
2 38093   5.1388  47.1968 0052373 357.3859  48.8674  1.00269872 50798
INTELSAT 22 (IS-22)     
1 38098U 12011A   26003.19419837 -.00000054  00000+0  00000+0 0  9994
2 38098   0.0167  41.9836 0001634 237.5691 325.2671  1.00271649  5531
APSTAR-7                
1 38107U 12013A   26003.14975381 -.00000097  00000+0  00000+0 0  9990
2 38107   0.0284  85.5650 0003689 212.9883 294.6269  1.00270653 50156
YAHSAT 1B               
1 38245U 12016A   26003.20253418  .00000131  00000+0  00000+0 0  9991
2 38245   0.0602  89.4378 0003866 217.1011 276.7958  1.00272447 43959
AEHF-2 (USA 235)        
1 38254U 12019A   26002.95826059 -.00000135  00000+0  00000+0 0  9997
2 38254   6.2678  58.6919 0003652 223.0010 149.3375  1.00273568  5330
JCSAT-13                
1 38331U 12023A   26003.24558606 -.00000352  00000+0  00000+0 0  9992
2 38331   0.0177  22.9022 0002592 253.9433  38.4372  1.00270260 49883
VINASAT-2               
1 38332U 12023B   26003.27298547 -.00000325  00000+0  00000+0 0  9991
2 38332   0.0126 353.2837 0002797 298.0168  41.7054  1.00271415 45001
NIMIQ 6                 
1 38342U 12026A   26003.25521672 -.00000170  00000+0  00000+0 0  9999
2 38342   0.0244  62.1537 0003026 216.5862 184.9173  1.00270536 48769
ZHONGXING-2A            
1 38352U 12028A   26003.12365786 -.00000289  00000+0  00000+0 0  9991
2 38352   1.0264  86.2452 0002759 192.2925 326.9682  1.00270434 49646
INTELSAT 19 (IS-19)     
1 38356U 12030A   26003.20841839 -.00000053  00000+0  00000+0 0  9994
2 38356   0.0172  48.0180 0003218 234.0200  61.8258  1.00270550 48791
ECHOSTAR 17             
1 38551U 12035A   26003.24849229 -.00000072  00000+0  00000+0 0  9992
2 38551   0.0043 100.2584 0002009 179.0359 165.9286  1.00273389 49414
METEOSAT-10 (MSG-3)     
1 38552U 12035B   26003.24689863 -.00000006  00000+0  00000+0 0  9996
2 38552   4.2791  61.6657 0001842 262.7721 227.4563  1.00267765 49209
SES-5                   
1 38652U 12036A   26003.09558649  .00000038  00000+0  00000+0 0  9992
2 38652   0.0576 306.1036 0002231 334.6039 221.3949  1.00270436 42806
INTELSAT 20 (IS-20)     
1 38740U 12043A   26003.11776449 -.00000019  00000+0  00000+0 0  9991
2 38740   0.0162  68.3514 0002058 108.2518  37.0264  1.00269557 49099
HYLAS 2                 
1 38741U 12043B   26003.23251188 -.00000255  00000+0  00000+0 0  9995
2 38741   2.0018  83.1482 0003151 208.3574 182.4778  1.00271075 49127
INTELSAT 21 (IS-21)     
1 38749U 12045A   26003.19627856 -.00000281  00000+0  00000+0 0  9998
2 38749   0.0140  58.5794 0002070 220.0282 196.8718  1.00270941 48872
ASTRA 2F                
1 38778U 12051A   26003.25244535  .00000154  00000+0  00000+0 0  9991
2 38778   0.0687 252.1170 0004388   1.2718 328.5408  1.00271363 39483
GSAT-10                 
1 38779U 12051B   26003.12062451 -.00000160  00000+0  00000+0 0  9991
2 38779   0.0455 253.6837 0001614 220.9890 114.4983  1.00270635 48440
INTELSAT 23 (IS-23)     
1 38867U 12057A   26003.19627856 -.00000280  00000+0  00000+0 0  9991
2 38867   0.0179  49.0007 0001102 254.8721 176.6048  1.00273661 48307
BEIDOU-2 G6             
1 38953U 12059A   26003.19186497 -.00000175  00000+0  00000+0 0  9993
2 38953   4.0022  75.2922 0008310 290.8934 249.6996  1.00272525 48250
LUCH-5B                 
1 38977U 12061A   26002.95826059 -.00000140  00000+0  00000+0 0  9992
2 38977  10.1255  51.4995 0006902 199.8796 179.8689  1.00272143 47952
YAMAL 300K              
1 38978U 12061B   26003.28312553  .00000000  00000+0  00000+0 0  9993
2 38978   0.0241  15.7995 0000445 224.1697 147.8030  1.00270203 47979
STAR ONE C3             
1 38991U 12062A   26003.22190751 -.00000245  00000+0  00000+0 0  9999
2 38991   0.0190 303.7102 0002389 347.4166 176.6052  1.00269502 48117
EUTELSAT 21B            
1 38992U 12062B   26003.25114534  .00000134  00000+0  00000+0 0  9994
2 38992   0.0657   9.9329 0002995 275.7492 289.2003  1.00269499 48178
ECHOSTAR 16             
1 39008U 12065A   26003.22598016 -.00000278  00000+0  00000+0 0  9994
2 39008   0.0173  41.3299 0002116 242.0527 199.3032  1.00270636 47983
ZHONGXING-12            
1 39017U 12067A   26003.13864310 -.00000202  00000+0  00000+0 0  9996
2 39017   0.0375  90.0682 0003828 187.0402 323.0569  1.00271405 47857
EUTELSAT 70B            
1 39020U 12069A   26003.18952494 -.00000039  00000+0  00000+0 0  9996
2 39020   0.0612   8.9265 0003879 254.1250 338.4844  1.00271582 47855
YAMAL 402               
1 39022U 12070A   26003.25764538  .00000089  00000+0  00000+0 0  9992
2 39022   0.8423  86.4541 0004325 199.2450 324.8328  1.00270382 47742
SKYNET 5D               
1 39034U 12075A   26003.20253418  .00000104  00000+0  00000+0 0  9993
2 39034   0.0716   5.7868 0003980 274.2617 308.3967  1.00270451 47500
MEXSAT 3                
1 39035U 12075B   26003.08634965 -.00000022  00000+0  00000+0 0  9990
2 39035   0.0159  60.3287 0002107 186.2107 132.4608  1.00277470  5397
TDRS 11                 
1 39070U 13004A   26003.21231841  .00000081  00000+0  00000+0 0  9997
2 39070   3.2840  28.1505 0001876 332.3000   4.3872  1.00269466 45032
AMAZONAS 3              
1 39078U 13006A   26003.22598001 -.00000278  00000+0  00000+0 0  9991
2 39078   0.0450 209.3369 0004782  51.8444 222.0238  1.00269331 43266
AZERSPACE 1             
1 39079U 13006B   26003.20253418  .00000137  00000+0  00000+0 0  9993
2 39079   0.0177  20.5873 0002113 284.2714 276.8586  1.00271619 47151
SBIRS GEO-2 (USA 241)   
1 39120U 13011A   26003.09427766 -.00000285  00000+0  00000+0 0  9997
2 39120   4.1325  52.2718 0002255 231.9011 162.6846  1.00271354 46880
EUTELSAT 117 WEST A     
1 39122U 13012A   26002.93841381 -.00000008  00000+0  00000+0 0  9998
2 39122   0.0141  30.6009 0003186 258.0296  34.9611  1.00271645 46777
ANIK G1                 
1 39127U 13014A   26003.24849291 -.00000070  00000+0  00000+0 0  9997
2 39127   0.0146  62.7088 0003764 212.4759 169.8325  1.00270546 46601
ZHONGXING-11            
1 39157U 13020A   26003.26613877 -.00000287  00000+0  00000+0 0  9998
2 39157   0.0320 294.4570 0003060 345.5411  16.5894  1.00273368 46244
EUTELSAT 7B             
1 39163U 13022A   26003.24819865  .00000052  00000+0  00000+0 0  9999
2 39163   0.0659 353.4564 0005305 331.1849 234.5700  1.00270049 46291
WGS F5 (USA 243)        
1 39168U 13024A   26003.19627856 -.00000280  00000+0  00000+0 0  9991
2 39168   0.0057 113.2369 0000428 220.4066 147.3307  1.00269911 45520
SES-6                   
1 39172U 13026A   26003.11780639 -.00000257  00000+0  00000+0 0  9993
2 39172   0.0184  20.5029 0002698 267.5772 176.5588  1.00269585 46079
IRNSS-1A                
1 39199U 13034A   26002.75826846  .00000049  00000+0  00000+0 0  9999
2 39199  35.3639  66.2506 0026601 147.0291 217.2977  1.00276989 45710
MUOS-2                  
1 39206U 13036A   26002.92428706 -.00000010  00000+0  00000+0 0  9991
2 39206   4.6664  45.1732 0053811 180.7180  21.4478  1.00272775 45537
ALPHASAT                
1 39215U 13038A   26003.25175200  .00000136  00000+0  00000+0 0  9996
2 39215   2.9703   2.7635 0002274 279.5128 296.0804  1.00269914 42361
INSAT-3D                
1 39216U 13038B   26003.27255214 -.00000336  00000+0  00000+0 0  9996
2 39216   1.5004  84.7315 0002084 168.1142  77.7139  1.00269156 45427
WGS F6 (USA 244)        
1 39222U 13041A   26003.23740803  .00000093  00000+0  00000+0 0  9995
2 39222   0.0176  35.8217 0000520 259.0178 118.2911  1.00270249 44409
ES'HAIL 1               
1 39233U 13044A   26003.25192534  .00000147  00000+0  00000+0 0  9994
2 39233   0.0475 357.3831 0002596 287.5502 294.1164  1.00269628 44974
GSAT-7                  
1 39234U 13044B   26003.19021829 -.00000073  00000+0  00000+0 0  9995
2 39234   0.0371  87.2467 0008401 192.2052 325.8322  1.00271070 43608
AMOS-4                  
1 39237U 13045A   26003.11707116  .00000000  00000+0  00000+0 0  9990
2 39237   0.0349  74.9018 0003175 237.3521 257.6248  1.00270946 45305
AEHF-3 (USA 246)        
1 39256U 13050A   26003.24306670  .00000028  00000+0  00000+0 0  9991
2 39256   4.8846  68.7128 0094772 185.1592 172.3151  1.00274948 43999
ASTRA 2E                
1 39285U 13056A   26003.25253201  .00000154  00000+0  00000+0 0  9991
2 39285   0.0545 354.4015 0002180 292.9252 294.9565  1.00272488 44760
FM-6                    
1 39360U 13058A   26003.24431721 -.00000013  00000+0  00000+0 0  9996
2 39360   0.0199  76.2337 0002760 101.0533 257.3764  1.00270744 44410
RADUGA-1M 3             
1 39375U 13062A   26003.25383203  .00000152  00000+0  00000+0 0  9992
2 39375   5.5458  74.4220 0000920 356.5357 158.2737  1.00270381 44452
SES-8                   
1 39460U 13071A   26003.12058479 -.00000265  00000+0  00000+0 0  9993
2 39460   0.0350 278.9313 0000957  10.1289 312.0972  1.00271384 42788
INMARSAT 5-F1           
1 39476U 13073A   26002.97394736  .00000033  00000+0  00000+0 0  9995
2 39476   0.0173  20.2979 0000565 246.8956 248.6421  1.00272420 43920
TKSAT-1 (TUPAC KATARI)  
1 39481U 13075A   26003.25680230 -.00000190  00000+0  00000+0 0  9997
2 39481   0.0444 130.0971 0002891 149.6510 188.3839  1.00269772 43951
EXPRESS-AM5             
1 39487U 13077A   26003.27463215  .00000000  00000+0  00000+0 0  9998
2 39487   0.0283  44.2685 0002326 267.3647  30.1716  1.00269160 44701
GSAT-14                 
1 39498U 14001A   26003.11889117 -.00000072  00000+0  00000+0 0  9994
2 39498   0.0332 256.0912 0006313  19.1996 304.2369  1.00270712 43729
THAICOM 6               
1 39500U 14002A   26003.11975784 -.00000117  00000+0  00000+0 0  9995
2 39500   0.0687 107.1532 0001464 201.0482 276.1927  1.00270390 43802
TDRS 12                 
1 39504U 14004A   26003.23875191 -.00000268  00000+0  00000+0 0  9992
2 39504   3.8226  16.1260 0006173 251.6644 240.1397  1.00274248 42623
ABS-2                   
1 39508U 14006A   26003.19419837 -.00000082  00000+0  00000+0 0  9998
2 39508   0.0252  69.7499 0003816 205.0578 332.8429  1.00271188 43629
ATHENA-FIDUS            
1 39509U 14006B   26003.18302490  .00000158  00000+0  00000+0 0  9997
2 39509   0.0268  92.0460 0001353 174.8407 299.6064  1.00269439 43432
TURKSAT 4A              
1 39522U 14007A   26003.25513203  .00000150  00000+0  00000+0 0  9999
2 39522   0.0761 284.2974 0005448 356.1829 316.2203  1.00269315 43313
EXPRESS-AT1             
1 39612U 14010A   26003.18657826  .00000083  00000+0  00000+0 0  9990
2 39612   0.0152 327.8627 0000503 286.0287 332.0760  1.00272059 43168
EXPRESS-AT2             
1 39613U 14010B   26003.27454549  .00000000  00000+0  00000+0 0  9997
2 39613   0.0233  27.0633 0001683 255.4669  59.0646  1.00268477 42841
AMAZONAS 4A             
1 39616U 14011A   26003.22190762 -.00000248  00000+0  00000+0 0  9995
2 39616   0.0628 173.1513 0004804  91.4648 204.1162  1.00271814 43065
ASTRA 5B                
1 39617U 14011B   26003.25149200  .00000141  00000+0  00000+0 0  9991
2 39617   0.0478 338.9027 0004724 302.1032 295.9084  1.00268198 43017
IRNSS-1B                
1 39635U 14017A   26001.75968725  .00000148  00000+0  00000+0 0  9998
2 39635  29.2191 243.2497 0018450 175.6398  11.1782  1.00274815 43128
LUCH-5V                 
1 39727U 14023A   26003.26561876 -.00000269  00000+0  00000+0 0  9996
2 39727   4.7223  71.3434 0004346 219.0184   2.8945  1.00269800 42709
KAZSAT-3                
1 39728U 14023B   26003.18709826  .00000065  00000+0  00000+0 0  9990
2 39728   0.0178 357.5242 0000209 348.1773 242.9579  1.00271730 40800
EUTELSAT 3B             
1 39773U 14030A   26003.24750531  .00000024  00000+0  00000+0 0  9999
2 39773   0.0619  12.6919 0004227 230.6450 311.7207  1.00271797 42416
ASIASAT 8 (AMOS-7)      
1 40107U 14046A   26003.26761211 -.00000328  00000+0  00000+0 0  9996
2 40107   0.0408 269.3849 0001251   1.8575  33.2576  1.00267932100492
ASIASAT 6               
1 40141U 14052A   26003.27064546 -.00000358  00000+0  00000+0 0  9992
2 40141   0.0155 357.7533 0000954 296.9214  25.5479  1.00272709 41417
OPTUS 10                
1 40146U 14054A   26002.84975325 -.00000142  00000+0  00000+0 0  9998
2 40146   0.1213  24.7951 0002808 250.8279 288.7754  1.00270027 41378
MEASAT-3B               
1 40147U 14054B   26003.12235786 -.00000237  00000+0  00000+0 0  9996
2 40147   0.0268  21.1793 0001792 324.2203 252.8858  1.00273288 41253
LUCH (OLYMP-K 1)        
1 40258U 14058A   26003.05085740 -.00000022  00000+0  00000+0 0  9990
2 40258   1.4673  84.6752 0003814 179.1953 308.1172  0.99114863 39336
HIMAWARI-8              
1 40267U 14060A   26003.27471882 -.00000272  00000+0  00000+0 0  9990
2 40267   0.0171 116.8013 0001335 173.6996  51.9437  1.00269371 41107
IRNSS-1C                
1 40269U 14061A   26002.77580552 -.00000162  00000+0  00000+0 0  9990
2 40269   6.0952  92.2030 0018210   0.2093  12.3407  1.00271855 41031
INTELSAT 30 (IS-30)     
1 40271U 14062A   26002.94266051 -.00000146  00000+0  00000+0 0  9990
2 40271   0.0152  39.0501 0001094  57.1918 250.6281  1.00271002  5133
ARSAT 1                 
1 40272U 14062B   26003.23259854 -.00000256  00000+0  00000+0 0  9999
2 40272   0.0123   5.5522 0001886 271.0401 198.2093  1.00270433 40972
EXPRESS-AM6             
1 40277U 14064A   26003.25729872  .00000102  00000+0  00000+0 0  9999
2 40277   0.0151 307.7219 0001210 352.6371 308.1499  1.00272012 39910
GSAT-16                 
1 40332U 14078A   26003.18649160  .00000000  00000+0  00000+0 0  9996
2 40332   0.0162  35.8853 0002348  73.2566 115.9105  1.00272742 40451
DIRECTV 14              
1 40333U 14078B   26003.10834142  .00000000  00000+0  00000+0 0  9995
2 40333   0.0261  29.8715 0000289 232.2966 140.3506  1.00268854 40383
YAMAL 401               
1 40345U 14082A   26003.12201119 -.00000224  00000+0  00000+0 0  9996
2 40345   0.0295 240.5239 0000101 316.2970  39.8094  1.00271690 40260
ASTRA 2G                
1 40364U 14089A   26003.25244535  .00000154  00000+0  00000+0 0  9998
2 40364   0.0465 355.6372 0001843   4.4141 221.8932  1.00269157 40311
FENGYUN 2G              
1 40367U 14090A   26003.05259075 -.00000302  00000+0  00000+0 0  9992
2 40367   5.2210  74.8360 0002080 180.6430 325.6292  1.00277634 40342
MUOS-3                  
1 40374U 15002A   26003.24369194 -.00000128  00000+0  00000+0 0  9995
2 40374   4.2052  42.6222 0057161 183.0026 309.4833  1.00270548 39932
INMARSAT 5-F2           
1 40384U 15005A   26002.45132491 -.00000278  00000+0  00000+0 0  9995
2 40384   0.0046  89.2990 0000659 221.7272 258.5503  1.00276762 39338
ABS-3A                  
1 40424U 15010A   26003.24629197  .00000000  00000+0  00000+0 0  9990
2 40424   0.0470  67.0568 0000767 186.1085 295.3510  1.00270347 39728
EUTELSAT 115 WEST B     
1 40425U 15010B   26003.08634929 -.00000020  00000+0  00000+0 0  9995
2 40425   0.0102 162.3466 0000483 283.5766 292.9829  1.00270197 39730
EXPRESS-AM7             
1 40505U 15012A   26003.25478536  .00000155  00000+0  00000+0 0  9993
2 40505   0.0125  56.6433 0003150 228.0681 309.8661  1.00271811 39351
BEIDOU-3S IGSO-1S       
1 40549U 15019A   26002.76667519 -.00000190  00000+0  00000+0 0  9994
2 40549  49.5099 297.4601 0036403 193.2379 342.9004  1.00287850 39419
THOR 7                  
1 40613U 15022A   26003.24672530  .00000000  00000+0  00000+0 0  9992
2 40613   0.0121  33.1202 0002926 250.4408 267.4917  1.00271071 39167
TURKMENALEM52E/MONACOSAT
1 40617U 15023A   26003.25712538  .00000108  00000+0  00000+0 0  9990
2 40617   0.0385  84.8043 0003037 196.6064 326.0371  1.00271758 39193
DIRECTV 15              
1 40663U 15026A   26003.25354769 -.00000098  00000+0  00000+0 0  9991
2 40663   0.0178  31.8982 0000268 153.1180 266.2508  1.00269937 38819
SKY MEXICO-1            
1 40664U 15026B   26003.23121186 -.00000230  00000+0  00000+0 0  9993
2 40664   0.0175   0.6376 0002777 294.9778 171.7077  1.00271315 38805
METEOSAT-11 (MSG-4)     
1 40732U 15034A   26003.24871866  .00000063  00000+0  00000+0 0  9999
2 40732   2.7898  71.9393 0000520 135.0983 354.6057  1.00274219  5562
STAR ONE C4             
1 40733U 15034B   26003.23294521 -.00000261  00000+0  00000+0 0  9997
2 40733   0.0248  27.4578 0002406 275.9508 173.3145  1.00270020 38360
WGS F7 (USA 263)        
1 40746U 15036A   26003.06758418  .00000000  00000+0  00000+0 0  9994
2 40746   0.0259  13.4124 0000492 280.2834   8.3357  1.00268939 38214
INTELSAT 34 (IS-34)     
1 40874U 15039A   26003.19627856 -.00000281  00000+0  00000+0 0  9996
2 40874   0.0158 351.2034 0000616 215.8435 270.9310  1.00269555 37979
EUTELSAT 8 WEST B       
1 40875U 15039B   26003.24525196 -.00000061  00000+0  00000+0 0  9993
2 40875   0.0636 354.0101 0004120 288.1718 260.9842  1.00271694 38009
GSAT-6                  
1 40880U 15041A   26003.12053785 -.00000157  00000+0  00000+0 0  9995
2 40880   1.4927  84.8098 0002684 196.7725 307.1282  1.00271317 37947
INMARSAT 5-F3           
1 40882U 15042A   26002.85434662  .00000055  00000+0  00000+0 0  9990
2 40882   0.0051  86.5957 0001927  74.8819  68.1440  1.00265966 37914
MUOS-4                  
1 40887U 15044A   26003.19419837 -.00000092  00000+0  00000+0 0  9994
2 40887   4.0225  41.0376 0053616 356.8504 209.8927  1.00270734 37905
TJS-1                   
1 40892U 15046A   26003.27757883 -.00000153  00000+0  00000+0 0  9995
2 40892   0.0942  78.2267 0008120 252.2541  27.3455  1.00269575 37915
EXPRESS-AM8             
1 40895U 15048A   26003.17405888  .00000000  00000+0  00000+0 0  9994
2 40895   0.0203  35.2781 0000070 145.2585 330.9279  1.00269465 37697
BEIDOU-3S IGSO-2S       
1 40938U 15053A   26001.15032749 -.00000110  00000+0  00000+0 0  9999
2 40938  49.4797 260.7757 0061044 188.0162 161.6916  1.00264809 37674
SKY MUSTER 1 (NBN1A)    
1 40940U 15054A   26003.20330503 -.00000275  00000+0  00000+0 0  9992
2 40940   0.0165 342.7830 0002052 292.9455  40.5323  1.00269496 37603
ARSAT 2                 
1 40941U 15054B   26003.25992816 -.00000221  00000+0  00000+0 0  9990
2 40941   0.0106   2.7886 0002229 273.7387 198.9403  1.00270564 37650
MORELOS 3               
1 40946U 15056A   26003.24580281 -.00000041  00000+0  00000+0 0  9995
2 40946   3.0701  10.3270 0000683 311.5919 116.3360  1.00272058 37639
APSTAR-9                
1 40982U 15059A   26003.27497882 -.00000262  00000+0  00000+0 0  9990
2 40982   0.0256 320.5074 0003940 279.8214 103.5663  1.00270389 37462
TURKSAT 4B              
1 40984U 15060A   26003.25677870  .00000119  00000+0  00000+0 0  9999
2 40984   0.0160 339.7169 0002219 308.9186 316.6507  1.00268469 37443
ZHONGXING-2C            
1 41021U 15063A   26003.26726544 -.00000319  00000+0  00000+0 0  9992
2 41021   0.1591 261.3480 0009506 328.3269  72.8698  1.00270838 37327
GSAT-15                 
1 41028U 15065A   26003.12058479 -.00000253  00000+0  00000+0 0  9998
2 41028   0.0136  72.0746 0002320 188.3017 339.2728  1.00271499 37140
BADR-7 (ARABSAT-6B)     
1 41029U 15065B   26003.25201201  .00000149  00000+0  00000+0 0  9999
2 41029   0.0401 207.0246 0005411  43.8404 328.7259  1.00268867 37114
LAOSAT 1                
1 41034U 15067A   26003.24558606 -.00000339  00000+0  00000+0 0  9992
2 41034   0.0443 141.0449 0001801 109.2481  69.5051  1.00270358 37207
TELSTAR 12V             
1 41036U 15068A   26003.24386529 -.00000115  00000+0  00000+0 0  9990
2 41036   0.0144  61.7288 0002631 224.3976 249.5189  1.00270594 36973
ELEKTRO-L 2             
1 41105U 15074A   26003.02997060 -.00000118  00000+0  00000+0 0  9991
2 41105   6.2777  72.5688 0004069 209.4566 176.9338  1.00270559 36857
COSMOS 2513             
1 41121U 15075A   26003.19134495 -.00000133  00000+0  00000+0 0  9990
2 41121   0.0705 104.7090 0003925 170.3537 336.8730  1.00268518 36896
EXPRESS-AMU1            
1 41191U 15082A   26003.25383203  .00000000  00000+0  00000+0 0  9997
2 41191   0.0239  28.0010 0002947 245.1919 317.1782  1.00268095 36612
GAOFEN-4                
1 41194U 15083A   26003.26778544 -.00000331  00000+0  00000+0 0  9996
2 41194   0.2240  82.3572 0003042  99.1027 123.5314  1.00272030 36871
BELINTERSAT-1           
1 41238U 16001A   26003.25703870  .00000000  00000+0  00000+0 0  9997
2 41238   0.0302  73.8266 0001219 184.0766 348.9735  1.00272421 36582
IRNSS-1E                
1 41241U 16003A   25362.63404722 -.00000302  00000+0  00000+0 0  9992
2 41241  32.8599  62.2206 0020852 188.3547 186.7898  1.00276785 36373
EUTELSAT 9B             
1 41310U 16005A   26003.24863199  .00000066  00000+0  00000+0 0  9994
2 41310   0.0488  66.1667 0005008 214.8051 280.3893  1.00272076 36464
SES-9                   
1 41380U 16013A   26003.26830545 -.00000341  00000+0  00000+0 0  9998
2 41380   0.0228 317.2914 0000375  18.0833 332.3951  1.00269434 35783
EUTELSAT 65 WEST A      
1 41382U 16014A   26003.23258274 -.00000272  00000+0  00000+0 0  9994
2 41382   0.0697 314.1365 0002562 326.9973 200.2412  1.00273012 35880
IRNSS-1F                
1 41384U 16015A   26002.96788065  .00000158  00000+0  00000+0 0  9994
2 41384   4.9345 100.7731 0021735 183.6185 199.0244  1.00269003 36016
BEIDOU-2 IGSO-6         
1 41434U 16021A   25363.87100888 -.00000149  00000+0  00000+0 0  9998
2 41434  59.9892  39.7261 0060724 230.9563 235.3434  1.00289362 35783
IRNSS-1G                
1 41469U 16027A   26002.70184810 -.00000333  00000+0  00000+0 0  9997
2 41469   4.7861 101.5636 0002875 322.0033  61.0083  1.00269497 35520
JCSAT-2B                
1 41471U 16028A   26003.13457793 -.00000161  00000+0  00000+0 0  9991
2 41471   0.0173  20.6268 0001305 262.2077  22.3553  1.00269961 35472
THAICOM 8               
1 41552U 16031A   26003.11975784 -.00000117  00000+0  00000+0 0  9999
2 41552   0.0540  35.0851 0004344 268.4477 280.8108  1.00273013 35061
INTELSAT 31 (IS-31)     
1 41581U 16035A   26002.94266051 -.00000145  00000+0  00000+0 0  9996
2 41581   0.0269 273.2746 0002352 302.6679 130.9210  1.00270492 35025
BEIDOU-2 G7             
1 41586U 16037A   26003.10947789 -.00000351  00000+0  00000+0 0  9995
2 41586   1.8077  67.9886 0004962   2.8558 181.8391  1.00273706  5239
ABS-2A (MONGOLSAT-1)    
1 41588U 16038A   26002.81066626 -.00000078  00000+0  00000+0 0  9993
2 41588   0.0185  37.7006 0001913 205.1955 226.1166  1.00268314 35058
EUTELSAT 117 WEST B     
1 41589U 16038B   26003.00969049 -.00000006  00000+0  00000+0 0  9998
2 41589   0.0086 161.9795 0000358 259.6528 287.5128  1.00269813 35005
BRISAT                  
1 41591U 16039A   26002.99123037  .00000000  00000+0  00000+0 0  9991
2 41591   0.0212   0.6652 0002360 276.1343 333.1638  1.00269022 34953
ECHOSTAR 18             
1 41592U 16039B   26003.22597991 -.00000278  00000+0  00000+0 0  9991
2 41592   0.0176  21.8988 0001931 261.1685 199.7549  1.00270209 34974
MUOS-5                  
1 41622U 16041A   26003.24849141 -.00000128  00000+0  00000+0 0  9991
2 41622   2.5647 299.0248 0198878 263.0572 245.2616  1.00268970 35435
TIANTONG-1 1            
1 41725U 16048A   26003.12426454 -.00000316  00000+0  00000+0 0  9996
2 41725   3.5383  41.7565 0003086 317.2749 249.8683  1.00273157 34611
JCSAT-16                
1 41729U 16050A   26002.91874036 -.00000246  00000+0  00000+0 0  9994
2 41729   0.0174  21.2145 0001088 254.0794 301.9474  1.00269757 34417
USA 270                 
1 41744U 16052A   26002.35061757 -.00000126  00000+0  00000+0 0  9996
2 41744   3.7723  79.3371 0002072 264.0849  41.4606  1.00327736 26466
USA 271                 
1 41745U 16052B   26002.41908470 -.00000235  00000+0  00000+0 0  9997
2 41745   3.7449  79.3999 0001812  24.8226 291.0419  1.00410817 26255
INTELSAT 36 (IS-36)     
1 41747U 16053A   26002.83933689 -.00000019  00000+0  00000+0 0  9996
2 41747   0.0110  22.4506 0001579 289.5060 161.1683  1.00271619 34299
INSAT-3DR               
1 41752U 16054A   26003.11880450 -.00000072  00000+0  00000+0 0  9991
2 41752   0.0613  86.3390 0014630 186.9457 306.2184  1.00271321 34169
GSAT-18                 
1 41793U 16060A   26003.11889117 -.00000072  00000+0  00000+0 0  9992
2 41793   0.0165  54.8374 0002239 259.4511 265.2171  1.00270950 33871
SKY MUSTER 2 (NBN1B)    
1 41794U 16060B   26003.27558549 -.00000241  00000+0  00000+0 0  9990
2 41794   0.0162 339.1405 0001778 297.1794  70.5773  1.00270140 33867
HIMAWARI-9              
1 41836U 16064A   26003.20339170  .00000000  00000+0  00000+0 0  9993
2 41836   0.0136  37.3760 0001565 301.3017 338.1351  1.00271202 33557
SHIJIAN-17 (SJ-17)      
1 41838U 16065A   26002.98551032 -.00000343  00000+0  00000+0 0  9994
2 41838   5.3326  74.6097 0001088 179.6524 324.1706  0.99861906 33556
GOES 16                 
1 41866U 16071A   26003.24918411 -.00000087  00000+0  00000+0 0  9995
2 41866   0.0784 101.1786 0003471 171.6986 175.0198  1.00270439 33444
TIANLIAN 1-04           
1 41869U 16072A   26003.28182553  .00000034  00000+0  00000+0 0  9994
2 41869   0.4415  83.3449 0044135  97.4563 200.3432  1.00273211 33643
WGS F8 (USA 272)        
1 41879U 16075A   26002.85044737  .00000000  00000+0  00000+0 0  9994
2 41879   0.0472  62.8635 0000406 279.0852 216.5296  1.00267269 33164
FENGYUN 4A              
1 41882U 16077A   26003.27142546 -.00000354  00000+0  00000+0 0  9997
2 41882   1.9022  82.1705 0005527 136.7348 105.4490  1.00275379 33275
ECHOSTAR 19             
1 41893U 16079A   26003.25213463 -.00000134  00000+0  00000+0 0  9992
2 41893   0.0184  25.8990 0001658 249.7679 180.8828  1.00270797 33056
JCSAT-110A (JCSAT-15)   
1 41903U 16082A   26003.26865212 -.00000347  00000+0  00000+0 0  9990
2 41903   0.0173  31.5096 0000890 259.1540  18.9948  1.00268827 33107
STAR ONE D1             
1 41904U 16082B   26003.25833377 -.00000207  00000+0  00000+0 0  9992
2 41904   0.0207 297.6718 0002382  14.7644 159.4621  1.00271186 33123
TJS-2                   
1 41911U 17001A   26003.18874494 -.00000002  00000+0  00000+0 0  9992
2 41911   0.4055  87.9687 0002592 205.0656 304.2637  1.00270803 33067
SBIRS GEO-4 (USA 273)   
1 41937U 17004A   26003.25097200  .00000126  00000+0  00000+0 0  9999
2 41937   1.9429  37.8134 0002556 243.8396 292.4652  1.00271439 32945
HISPASAT 36W-1          
1 41942U 17006A   26003.18516872 -.00000240  00000+0  00000+0 0  9998
2 41942   0.0072 330.3178 0001009 310.2442 212.9060  1.00270368 32598
TELKOM 3S               
1 41944U 17007A   26003.27003880  .00000000  00000+0  00000+0 0  9994
2 41944   0.0280  40.0135 0002598 245.3778  32.7150  1.00270792 32480
INTELSAT 32E (IS-32E)   
1 41945U 17007B   26003.19072640 -.00000265  00000+0  00000+0 0  9990
2 41945   0.0256  73.5412 0000575 270.4886 144.2664  1.00270372 32578
ECHOSTAR 23             
1 42070U 17014A   26002.86847337 -.00000052  00000+0  00000+0 0  9998
2 42070   0.0170  14.1210 0001992 266.5203  24.6036  1.00270569 32261
WGS F9 (USA 275)        
1 42075U 17016A   26003.10114141  .00000000  00000+0  00000+0 0  9995
2 42075   0.0261  21.1482 0000714 294.0382 171.9721  1.00269460 32244
SES-10                  
1 42432U 17017A   26003.23363854 -.00000268  00000+0  00000+0 0  9991
2 42432   0.0191  41.7829 0003267 256.3448 181.9391  1.00270033 32091
CHINASAT 16 (SJ-13)     
1 42662U 17018A   26003.48276847 -.00000350  00000+0  00000+0 0  9991
2 42662   0.0483  86.1181 0007719 166.6371 134.6667  1.00281863 32092
KOREASAT 7              
1 42691U 17023A   26003.26977878 -.00000358  00000+0  00000+0 0  9995
2 42691   0.0225 358.7617 0001336 260.8484  56.2727  1.00268768 31714
SGDC                    
1 42692U 17023B   26002.92294655  .00000000  00000+0  00000+0 0  9996
2 42692   0.0273  18.4416 0003608 271.5132  70.0063  1.00269376 31755
GSAT-9                  
1 42695U 17024A   26003.12058479 -.00000281  00000+0  00000+0 0  9997
2 42695   0.0683 257.6557 0002616  21.2398 324.5404  1.00267398 31644
INMARSAT 5-F4           
1 42698U 17025A   26003.04409736  .00000080  00000+0  00000+0 0  9994
2 42698   0.0172  21.3520 0000579 254.3616 259.3555  1.00272666 31628
SES-15                  
1 42709U 17026A   26003.23946995  .00000064  00000+0  00000+0 0  9994
2 42709   0.0203 340.7824 0000567 312.9074 126.2189  1.00268593  5773
QZS-2 (MICHIBIKI-2)     
1 42738U 17028A   26001.53427786 -.00000102  00000+0  00000+0 0  9995
2 42738  39.6821 245.5914 0754407 269.7072 280.5612  1.00277886  5957
VIASAT-2                
1 42740U 17029A   26003.23303187 -.00000261  00000+0  00000+0 0  9992
2 42740   0.0137 320.2451 0000707 224.5078 292.0674  1.00270635 31557
EUTELSAT 172B           
1 42741U 17029B   26003.06680418 -.00000001  00000+0  00000+0 0  9991
2 42741   0.0335 120.5629 0000256 122.2082  55.9546  1.00270752 32076
GSAT-19                 
1 42747U 17031A   26003.20253418  .00000130  00000+0  00000+0 0  9994
2 42747   0.0606  90.1875 0001518 181.8770 311.5432  1.00270387 31499
ECHOSTAR 21             
1 42749U 17032A   26003.24889199  .00000071  00000+0  00000+0 0  9996
2 42749   1.8221 345.0397 0002698 293.4017 284.2834  1.00270160 31444
BULGARIASAT-1           
1 42801U 17038A   26003.24724531  .00000015  00000+0  00000+0 0  9997
2 42801   0.0353  74.5275 0002560 209.8778 269.3768  1.00270455 31180
HELLAS-SAT 3            
1 42814U 17040A   26003.25452536  .00000156  00000+0  00000+0 0  9994
2 42814   0.0549  45.9814 0003416 284.1589 263.3478  1.00271972 31153
GSAT-17                 
1 42815U 17040B   26003.12270453 -.00000253  00000+0  00000+0 0  9996
2 42815   0.0745  93.5005 0007143 178.5262 328.3815  1.00270629 31131
INTELSAT 35E (IS-35E)   
1 42818U 17041A   26003.24005192  .00000000  00000+0  00000+0 0  9998
2 42818   0.0254  39.6291 0002342 247.6843 227.4944  1.00268976 31163
COSMOS 2520             
1 42907U 17046A   26003.25573870  .00000141  00000+0  00000+0 0  9992
2 42907   0.0416 101.4331 0000976 333.8138 164.7061  1.00275574 30749
TDRS 13                 
1 42915U 17047A   26003.24455862 -.00000093  00000+0  00000+0 0  9998
2 42915   3.4241 358.5195 0008617 118.7720  62.1335  1.00271262 30690
QZS-3 (MICHIBIKI-3)     
1 42917U 17048A   26003.24558606 -.00000344  00000+0  00000+0 0  9990
2 42917   0.0677 148.7873 0001784 126.7117  42.8243  1.00272162 30601
AMAZONAS 5              
1 42934U 17053A   26003.04495164 -.00000277  00000+0  00000+0 0  9997
2 42934   0.0366 323.9593 0005517 334.4757 119.4220  1.00264064 30380
ASIASAT 9               
1 42942U 17057A   26002.41509801  .00000000  00000+0  00000+0 0  9997
2 42942   0.0485  69.9214 0002076 210.4105  93.2991  1.00260398 30194
INTELSAT 37E (IS-37E)   
1 42950U 17059A   26003.24325861 -.00000137  00000+0  00000+0 0  9994
2 42950   0.0163  42.4559 0003312 228.4697 261.5007  1.00269964 30414
BSAT-4A                 
1 42951U 17059B   26003.26865212 -.00000346  00000+0  00000+0 0  9998
2 42951   0.0364  38.9659 0003183 306.6840 323.7877  1.00269072 30140
QZS-4 (MICHIBIKI-4)     
1 42965U 17062A   26003.27567215 -.00000341  00000+0  00000+0 0  9995
2 42965  40.2110 345.5915 0752090 268.5700  85.4100  1.00297334 30155
SES-11 (ECHOSTAR 105)   
1 42967U 17063A   26003.24918497 -.00000085  00000+0  00000+0 0  9992
2 42967   0.0141  19.6269 0003205 252.1716 175.8273  1.00271317 30078
KOREASAT 5A             
1 42984U 17067A   26003.26925878 -.00000354  00000+0  00000+0 0  9997
2 42984   0.0157 328.0752 0001378 280.6435  64.2466  1.00272498 29873
ALCOMSAT 1              
1 43039U 17078A   26003.24195860 -.00000182  00000+0  00000+0 0  9998
2 43039   0.0445 137.5313 0003541 127.9492 259.6896  1.00270599 29643
SBIRS GEO-3 (USA 282)   
1 43162U 18009A   26003.24746639  .00000131  00000+0  00000+0 0  9999
2 43162   2.0991   3.7774 0002592 276.7906 111.9849  1.00271021 29190
AL YAH 3                
1 43174U 18012A   26003.24291194 -.00000152  00000+0  00000+0 0  9991
2 43174   1.1262  85.2314 0004067 208.6691 236.3819  1.00271981 29197
SES-14                  
1 43175U 18012B   26003.19072640 -.00000274  00000+0  00000+0 0  9994
2 43175   0.0119  16.4044 0001255 258.1009 209.4687  1.00270898  5376
GOES 17                 
1 43226U 18022A   26003.25615311 -.00000179  00000+0  00000+0 0  9991
2 43226   0.5130  88.8000 0003456 194.9368 181.8514  1.00270372 28774
HISPASAT 30W-6          
1 43228U 18023A   26003.11225422 -.00000211  00000+0  00000+0 0  9996
2 43228   0.0408  39.4137 0003992 260.2263 173.5088  1.00276031 28758
SUPERBIRD-B3            
1 43271U 18033A   26003.20763839 -.00000088  00000+0  00000+0 0  9996
2 43271   0.0050  91.8217 0001410 202.6427  45.0969  1.00271519 28404
HYLAS 4                 
1 43272U 18033B   26003.18516872  .00000000  00000+0  00000+0 0  9990
2 43272   0.0237  24.4777 0001305 294.7747 176.7036  1.00267837 28411
IRNSS-1I                
1 43286U 18035A   26002.84261073  .00000060  00000+0  00000+0 0  9995
2 43286  29.2002  76.7686 0021768 184.0942 200.0669  1.00277171 28427
USA 283                 
1 43339U 18036A   26002.78377985 -.00000311  00000+0  00000+0 0  9998
2 43339   0.0282 128.9247 0000202 226.5747 163.1701  1.00269968 23630
COSMOS 2526             
1 43432U 18037A   26003.20087834 -.00000340  00000+0  00000+0 0  9994
2 43432   0.0390  90.9069 0000983 333.7426 238.5382  1.00272149 28301
APSTAR-6C               
1 43450U 18041A   26002.41743802 -.00000310  00000+0  00000+0 0  9992
2 43450   0.0269  11.3561 0003701 279.7964  95.1916  1.00272887 28148
BANGABANDHUSAT-1        
1 43463U 18044A   26003.10392021 -.00000358  00000+0  00000+0 0  9991
2 43463   0.0281  89.5701 0002365 195.9213 333.7451  1.00271425 28052
SES-12                  
1 43488U 18049A   26003.12305119 -.00000264  00000+0  00000+0 0  9993
2 43488   0.0131  19.2052 0002853 255.0302 327.8036  1.00269731 27768
FENGYUN 2H              
1 43491U 18050A   26003.11993117 -.00000126  00000+0  00000+0 0  9996
2 43491   2.6043  81.0902 0002846 172.8927 331.2028  1.00268674 27781
BEIDOU-2 IGSO-7         
1 43539U 18057A   26001.07734399 -.00000061  00000+0  00000+0 0  9992
2 43539  55.1805 164.5028 0093439 235.0504 198.5658  1.00250688 27453
TELSTAR 19V             
1 43562U 18059A   26003.16300477 -.00000275  00000+0  00000+0 0  9995
2 43562   0.0220 132.8687 0001259  88.0517 237.5285  1.00269513 27498
TELKOM 4 (MERAH PUTIH)  
1 43587U 18064A   26003.11503262  .00000000  00000+0  00000+0 0  9995
2 43587   0.0284  41.2678 0001374 254.2143 316.6812  1.00268403 27221
TELSTAR 18V             
1 43611U 18069A   26003.27419882 -.00000290  00000+0  00000+0 0  9991
2 43611   0.0150 330.5150 0002350 311.4939  57.5872  1.00270209 26979
AZERSPACE 2 (IS-38)     
1 43632U 18074A   26003.20253418  .00000141  00000+0  00000+0 0  9998
2 43632   0.0161  16.8398 0001673 267.6458 296.3609  1.00270689 26790
HORIZONS-3E             
1 43633U 18074B   26003.13769795 -.00000026  00000+0  00000+0 0  9994
2 43633   0.0364 202.5960 0000647 103.6387  15.1114  1.00270106 26685
AEHF-4 (USA 288)        
1 43651U 18079A   26003.23355188 -.00000269  00000+0  00000+0 0  9996
2 43651   1.4400 349.6453 0061564 359.6341 130.1384  1.00268615 26644
BEIDOU-3 G1             
1 43683U 18085A   26003.27463215 -.00000276  00000+0  00000+0 0  9991
2 43683   2.6600 102.2929 0001645  70.1284 169.4021  1.00273087 26406
GSAT-29                 
1 43698U 18089A   26003.25764538  .00000089  00000+0  00000+0 0  9992
2 43698   0.0470 259.4051 0003480   6.3472 344.9541  1.00268125 26133
ES'HAIL 2               
1 43700U 18090A   26003.25192534  .00000148  00000+0  00000+0 0  9995
2 43700   0.0189  66.1297 0001621 247.3590 265.8558  1.00272885 26027
GEO-KOMPSAT-2A          
1 43823U 18100A   26002.72475376 -.00000338  00000+0  00000+0 0  9994
2 43823   0.0408 138.1468 0000280 236.1378 117.2339  1.00269905 25976
GSAT-11                 
1 43824U 18100B   26003.19021829 -.00000072  00000+0  00000+0 0  9992
2 43824   0.0562 252.3869 0001341 182.3500 170.5381  1.00270639 25829
GSAT-7A                 
1 43864U 18105A   26003.11663781  .00000031  00000+0  00000+0 0  9996
2 43864   0.0595 252.7157 0002791  13.3328 301.5057  1.00269867 25797
COSMOS 2533             
1 43867U 18107A   26003.18935161 -.00000034  00000+0  00000+0 0  9996
2 43867   0.0414 100.2003 0000977 198.1323 302.6364  1.00271144 25781
TJS-3                   
1 43874U 18110A   26002.68789468  .00000061  00000+0  00000+0 0  9998
2 43874   2.1185  82.5522 0002222 202.5904 123.7925  1.00270216 25756
ZHONGXING-2D            
1 43920U 19001A   26003.27263881 -.00000333  00000+0  00000+0 0  9995
2 43920   0.0464 221.0485 0002213  36.9396  73.0568  1.00269671 52424
HELLAS-SAT 4 & SGS-1    
1 44034U 19007A   26003.25461203  .00000157  00000+0  00000+0 0  9997
2 44034   0.0687 126.0647 0003622  55.8917  51.5903  1.00268878 25710
GSAT-31                 
1 44035U 19007B   26003.20253418  .00000130  00000+0  00000+0 0  9991
2 44035   0.0150 288.9523 0006350 341.1108 313.5432  1.00270343 25315
NUSANTARA SATU          
1 44048U 19009A   26003.06989098 -.00000230  00000+0  00000+0 0  9993
2 44048   0.0348 119.6104 0001451  68.9268  85.3214  1.00269396 25117
ZHONGXING-6C            
1 44067U 19012A   26003.27272547 -.00000332  00000+0  00000+0 0  9998
2 44067   0.0233  13.5621 0004925  21.3886 296.5552  1.00267572 25086
WGS 10 (USA 291)        
1 44071U 19014A   26002.75948181  .00000053  00000+0  00000+0 0  9990
2 44071   0.0170   3.9580 0000723 323.2408 108.8948  1.00268334 24950
TIANLIAN 2-01           
1 44076U 19017A   26003.19073829 -.00000102  00000+0  00000+0 0  9991
2 44076   0.1150  75.2111 0004663 191.7925 341.4920  1.00270509 24991
ARABSAT-6A              
1 44186U 19021A   26003.25287868  .00000158  00000+0  00000+0 0  9995
2 44186   0.0385 350.3291 0006410 292.4711 301.5955  1.00272539 24509
BEIDOU-2 G8             
1 44231U 19027A   26003.27549882 -.00000245  00000+0  00000+0 0  9999
2 44231   1.7149  74.7469 0008858 257.2931  14.5758  1.00270652 24428
YAMAL 601               
1 44307U 19031A   26003.25651870  .00000124  00000+0  00000+0 0  9992
2 44307   0.0149 323.2142 0002725 323.0328 317.9792  1.00272612 24261
AT&T T-16               
1 44333U 19034A   26003.25066062 -.00000111  00000+0  00000+0 0  9994
2 44333   0.0210  68.4479 0000688 107.6195 276.1763  1.00269927 23981
EUTELSAT 7C             
1 44334U 19034B   26003.24819865  .00000052  00000+0  00000+0 0  9994
2 44334   0.0747 180.0483 0003553  87.4227 291.7214  1.00270511  5185
BEIDOU-3 IGSO-2         
1 44337U 19035A   26002.34255753 -.00000097  00000+0  00000+0 0  9998
2 44337  55.2298 160.3206 0037978 203.0338 341.0261  1.00264332 24009
COSMOS 2539             
1 44457U 19048A   26003.32030579  .00000084  00000+0  00000+0 0  9996
2 44457   0.0377  96.4353 0000890 193.5735 300.2337  1.00268769 23577
EDRS-C                  
1 44475U 19049A   26003.27506549 -.00000258  00000+0  00000+0 0  9990
2 44475   0.0317 105.5883 0001253 182.5380  56.3013  1.00272410 23555
INTELSAT 39 (IS-39)     
1 44476U 19049B   26003.18779160  .00000000  00000+0  00000+0 0  9996
2 44476   0.0265  36.2400 0000985 128.2497  67.8833  1.00269741 23471
AMOS-17                 
1 44479U 19050A   26003.25019199  .00000114  00000+0  00000+0 0  9994
2 44479   0.0177   3.4374 0001579 277.5511 288.9652  1.00273678 23533
AEHF-5 (USA 292)        
1 44481U 19051A   26003.12244453 -.00000251  00000+0  00000+0 0  9990
2 44481   1.6442 325.1024 0070919   2.6106 272.2038  1.00272559 23604
EUTELSAT 5 WEST B       
1 44624U 19067A   26003.24585863 -.00000038  00000+0  00000+0 0  9995
2 44624   0.0746 326.7756 0003464 315.2326 264.3592  1.00270782 22781
TJS-4                   
1 44637U 19070A   26003.19186497 -.00000165  00000+0  00000+0 0  9998
2 44637   0.0547 220.1396 0002675  74.0616 321.1899  1.00272925 22813
TIBA-1                  
1 44800U 19080A   26003.25383203  .00000160  00000+0  00000+0 0  9996
2 44800   0.0543  19.6994 0002226 261.8288 308.2184  1.00272342 22400
INMARSAT GX5            
1 44801U 19080B   26003.24906532  .00000078  00000+0  00000+0 0  9990
2 44801   0.0357  13.9324 0002167 265.7866 283.7992  1.00269507  5131
JCSAT-18 (KACIFIC 1)    
1 44868U 19091A   26003.10878163 -.00000197  00000+0  00000+0 0  9991
2 44868   0.0530 216.9788 0000694  52.7742  22.1234  1.00269796 22353
ELEKTRO-L 3             
1 44903U 19095A   26003.14975381 -.00000092  00000+0  00000+0 0  9993
2 44903   0.0407 239.1744 0002761  46.4958 306.9995  1.00271412 22053
SHIJIAN-20 (SJ-20)      
1 44910U 19097A   26003.11967117 -.00000116  00000+0  00000+0 0  9995
2 44910   4.4958  77.1191 0007907 238.1623 268.4734  1.00272576 22046
TJS-5                   
1 44978U 20002A   26003.11503262 -.00000337  00000+0  00000+0 0  9999
2 44978   0.4020  88.5049 0005668 122.0854  41.0255  1.00267864 22040
GSAT-30                 
1 45026U 20005A   26003.12062451 -.00000160  00000+0  00000+0 0  9992
2 45026   0.0258  88.5445 0001695 148.4762 352.1603  1.00270334 21857
EUTELSAT KONNECT        
1 45027U 20005B   26003.24828531  .00000053  00000+0  00000+0 0  9995
2 45027   0.0701  93.1022 0001766 183.3436 282.9947  1.00270218 22683
JCSAT-17                
1 45245U 20013A   26003.27385215 -.00000308  00000+0  00000+0 0  9990
2 45245   5.4000 355.2435 0003591 301.9519  40.3038  1.00271204 21574
GEO-KOMPSAT-2B          
1 45246U 20013B   26003.24558606 -.00000340  00000+0  00000+0 0  9990
2 45246   0.0508 211.7117 0002533  65.2103  42.6093  1.00270816 21626
BEIDOU-3 G2             
1 45344U 20017A   26003.13864310 -.00000137  00000+0  00000+0 0  9997
2 45344   2.5364  44.3312 0002694 241.6295 306.7428  1.00270305 21606
AEHF-6 (USA 298)        
1 45465U 20022B   26003.27419882 -.00000290  00000+0  00000+0 0  9992
2 45465   2.9097 299.4051 0049480   9.7057  30.2708  1.00269865 21365
BEIDOU-3 G3             
1 45807U 20040A   26003.26873878 -.00000351  00000+0  00000+0 0  9998
2 45807   2.0420  66.7543 0003342 290.8573 312.4761  1.00273069 20410
APSTAR-6D               
1 45863U 20045A   26003.34470757 -.00000314  00000+0  00000+0 0  9992
2 45863   0.0476  89.5885 0002505 354.6174 276.9017  1.00270227 20207
KOREASAT 116            
1 45920U 20048A   26003.10947789 -.00000357  00000+0  00000+0 0  9994
2 45920   0.0189 311.7851 0001492 307.0184 359.5217  1.00273209 19988
EXPRESS 103             
1 45985U 20053A   26003.12331119  .00000000  00000+0  00000+0 0  9991
2 45985   0.0234  10.8534 0000234 236.7126 356.0737  1.00269137 19997
EXPRESS 80              
1 45986U 20053B   26002.49419113  .00000000  00000+0  00000+0 0  9992
2 45986   0.0259  33.8923 0001750  10.6013 315.5205  1.00270056 19970
BSAT-4B                 
1 46112U 20056A   26003.26865212 -.00000346  00000+0  00000+0 0  9992
2 46112   0.0438 138.1095 0001057  71.7838  99.5454  1.00270016 19738
MEV-2                   
1 46113U 20056B   26003.09558649 -.00000006  00000+0  00000+0 0  9990
2 46113   0.0156  54.1264 0001710 264.6422 177.3937  1.00270636 19176
GALAXY 30 (G-30)        
1 46114U 20056C   26003.24085431  .00000041  00000+0  00000+0 0  9990
2 46114   0.0154   2.4324 0002533 283.5037 138.6296  1.00272142 19637
GAOFEN-13 01            
1 46610U 20071A   26003.10947789 -.00000358  00000+0  00000+0 0  9998
2 46610   0.0953  83.2777 0042897 119.6013  57.5096  1.00267624 19269
TIANTONG-1 2            
1 46916U 20082A   26003.24558606 -.00000350  00000+0  00000+0 0  9992
2 46916   1.0620 309.7169 0004379 359.7592   6.7144  1.00268392 18995
LUCAS (JDRS-1)          
1 47202U 20089A   26003.12058479 -.00000229  00000+0  00000+0 0  9993
2 47202   0.0599 261.9514 0003551  22.4376 312.4916  1.00266894 18760
SXM-7                   
1 47240U 20096A   26003.25771155 -.00000201  00000+0  00000+0 0  9990
2 47240   0.0296  95.8121 0003541  34.3994 340.2470  1.00271294  5794
CMS-01                  
1 47256U 20099A   26003.12062451 -.00000160  00000+0  00000+0 0  9992
2 47256   0.0524  94.0074 0008134 177.7212 317.4349  1.00270838 18542
TURKSAT 5A              
1 47306U 21001A   26002.96762065  .00000159  00000+0  00000+0 0  9998
2 47306   0.0276  73.2792 0000276 197.5128 211.0560  1.00270447 18318
TIANTONG-1 3            
1 47321U 21003A   26003.19169162 -.00000147  00000+0  00000+0 0  9990
2 47321   1.9224 329.8797 0008015 314.8640 328.5791  1.00268417 18308
TJS-6                   
1 47613U 21010A   26003.28225887  .00000046  00000+0  00000+0 0  9996
2 47613   0.1752  95.2962 0003009 244.3903  43.2982  1.00271719 18159
SBIRS GEO-5 (USA 315)   
1 48618U 21042A   26003.03531715 -.00000258  00000+0  00000+0 0  9996
2 48618   5.3170 327.9442 0003482 276.1241 325.1126  1.00270858 17117
FENGYUN 4B              
1 48808U 21047A   26003.26761211 -.00000325  00000+0  00000+0 0  9998
2 48808   0.0473  43.0644 0010187 323.9262 296.8497  1.00267846 16915
SXM-8                   
1 48838U 21049A   26002.87332674 -.00000199  00000+0  00000+0 0  9995
2 48838   0.0173  27.1287 0003732  21.4586 283.1390  1.00267738 16931
TIANLIAN 1-05           
1 49011U 21063A   26003.25019199  .00000111  00000+0  00000+0 0  9995
2 49011   1.1688  82.0074 0005956 192.5910 295.1423  1.00270965 16423
STAR ONE D2             
1 49055U 21069A   26003.23294521  .00000000  00000+0  00000+0 0  9998
2 49055   0.0168  24.6739 0001789 222.1823 229.7779  1.00269742 16287
EUTELSAT QUANTUM        
1 49056U 21069B   26003.20253418  .00000130  00000+0  00000+0 0  9990
2 49056   0.0152  34.9760 0003781 252.6518 295.8019  1.00270769 16273
ZHONGXING-2E            
1 49062U 21071A   26003.12365786 -.00000287  00000+0  00000+0 0  9997
2 49062   0.0429 245.8986 0001398  19.2594 340.1652  1.00270251 16388
TJS-7                   
1 49115U 21077A   26003.33914301 -.00000120  00000+0  00000+0 0  9994
2 49115   0.0840  90.1190 0001129 201.5591 193.8716  1.00269508  7902
CHINASAT 9B             
1 49125U 21080A   26003.12426454 -.00000308  00000+0  00000+0 0  9991
2 49125   0.0316 275.8047 0003146 348.2684 344.8299  1.00272460 15990
SHIJIAN-21 (SJ-21)      
1 49330U 21094A   26003.34041245 -.00000349  00000+0  00000+0 0  9994
2 49330   4.7248  62.0930 0052071 170.7986 119.8650  1.00282214  3709
SES-17                  
1 49332U 21095A   26003.23355188 -.00000268  00000+0  00000+0 0  9999
2 49332   0.0183  34.1423 0001328 244.3947 201.2898  1.00268989 16201
SYRACUSE 4A             
1 49333U 21095B   26003.25582537  .00000139  00000+0  00000+0 0  9998
2 49333   0.0043 110.8713 0001442 166.4286 323.1674  1.00267527 16290
QZS-1R (MICHIBIKI-1R)   
1 49336U 21096A   26001.56293902 -.00000289  00000+0  00000+0 0  9996
2 49336  37.1173  82.0646 0757908 271.7285  83.4727  1.00250053 15343
ZHONGXING-1D            
1 49505U 21114A   26003.27263881 -.00000332  00000+0  00000+0 0  9997
2 49505   0.0185 188.5757 0003081  63.9145  78.7141  1.00271126 15172
STPSAT-6                
1 49817U 21118A   26003.24774608 -.00000041  00000+0  00000+0 0  9995
2 49817   0.0161 310.6605 0003034 345.4940 144.1588  1.00270696 14927
LDPE-1                  
1 49818U 21118B   26003.27471882 -.00000038  00000+0  00000+0 0  9993
2 49818   3.3326  80.8514 0004689 239.4532  21.7724  1.01741417 14992
EXPRESS AMU-7           
1 50001U 21123A   26003.27558549  .00000000  00000+0  00000+0 0  9999
2 50001   0.0233  35.2619 0000242 105.1046 206.7538  1.00269014 14882
EXPRESS AMU-3           
1 50002U 21123B   26002.43064244  .00000000  00000+0  00000+0 0  9991
2 50002   0.0168 350.8394 0000228 233.2620 135.8968  1.00270034  5378
TIANLIAN 2-02           
1 50005U 21124A   26003.28078552 -.00000011  00000+0  00000+0 0  9999
2 50005   0.3745  89.8310 0005936 182.3622 102.7595  1.00270492 14961
TURKSAT 5B              
1 50212U 21126A   26003.25513203  .00000150  00000+0  00000+0 0  9998
2 50212   0.0684 341.8980 0005166 322.3393 292.4815  1.00271670 14646
INMARSAT 6-F1           
1 50319U 21128A   26002.79677700 -.00000166  00000+0  00000+0 0  9997
2 50319   0.0167 344.5309 0000352 331.5843 156.9137  1.00271309 14605
SHIYAN-12 01 (SY-12 01) 
1 50321U 21129A   26002.63754101 -.00000032  00000+0  00000+0 0  9997
2 50321   3.2474  82.2308 0004232 206.6479 207.8278  1.00424483 14848
SHIYAN-12 02 (SY-12 02) 
1 50322U 21129B   26002.68936801  .00000038  00000+0  00000+0 0  9997
2 50322   3.2477  82.2393 0004295 196.4028 138.0100  1.00067940 14830
TJS-9                   
1 50574U 21135A   26003.27402549 -.00000295  00000+0  00000+0 0  9992
2 50574   0.0649  78.8670 0001209 160.9402  98.9409  1.00274306 14773
USA 324                 
1 51280U 22006A   25365.76173711  .00000067  00000+0  00000+0 0  9991
2 51280   0.3670  83.5573 0000536 229.3810 119.6852  1.00340509 14452
USA 325                 
1 51281U 22006B   25365.41776336 -.00000344  00000+0  00000+0 0  9995
2 51281   0.1482  83.6295 0022925 180.6591 107.9031  1.00269239 14443
GOES 18                 
1 51850U 22021A   26003.23671515  .00000101  00000+0  00000+0 0  9997
2 51850   0.0072 116.4101 0000714 197.2508  97.4038  1.00271764  4933
ZHONGXING-6D            
1 52255U 22038A   26002.36907501 -.00000346  00000+0  00000+0 0  9997
2 52255   0.0475 255.7811 0002989  18.4020  85.7726  1.00271572 13766
NILESAT 301             
1 52817U 22061A   26003.24542530 -.00000054  00000+0  00000+0 0  9998
2 52817   0.0433   6.6784 0005093 296.8829 240.6560  1.00270888 13086
CMS-02 (GSAT 24)        
1 52903U 22067A   26003.12062451  .00000000  00000+0  00000+0 0  9996
2 52903   0.0216  37.0665 0004989 239.1677 312.9472  1.00269653 12959
MEASAT 3D               
1 52904U 22067B   26003.12227119 -.00000237  00000+0  00000+0 0  9994
2 52904   0.0332 330.3101 0003742 336.9306 291.0213  1.00270472 12999
SES-22                  
1 52933U 22071A   26003.23603317  .00000108  00000+0  00000+0 0  9997
2 52933   0.0235  62.8761 0001271 221.6035 124.3404  1.00272371  5864
WFOV (USA 332)          
1 52940U 22073A   26003.19914500 -.00000361  00000+0  00000+0 0  9993
2 52940   3.2874  80.6828 0003048 162.1866  50.8962  1.00272206 12714
TIANLIAN 2-03           
1 53100U 22078A   26003.24897866  .00000076  00000+0  00000+0 0  9990
2 53100   0.2568  65.7365 0003537 223.2641 274.0924  1.00271067 12894
SBIRS GEO-6 (USA 336)   
1 53355U 22092A   26003.27437215 -.00000284  00000+0  00000+0 0  9991
2 53355   3.5443 315.0449 0002535 322.9315  62.6964  1.00270563 12581
EUTELSAT KONNECT VHTS   
1 53765U 22110A   26003.24741865  .00000021  00000+0  00000+0 0  9991
2 53765   0.0565  96.6845 0002673 164.6191 293.3427  1.00269631  5180
ZHONGXING-1E            
1 53813U 22112A   26003.13864310 -.00000145  00000+0  00000+0 0  9994
2 53813   0.0576 226.6737 0005043  48.6758 318.7331  1.00272188 12191
SES-20                  
1 53960U 22123A   26002.94110050 -.00000095  00000+0  00000+0 0  9996
2 53960   0.0179  64.7845 0000742  12.6356 260.8322  1.00269112 11874
SES-21                  
1 53961U 22123B   26002.71642061  .00000000  00000+0  00000+0 0  9999
2 53961   0.0399  30.2896 0000822 250.9483 308.1087  1.00268282  5559
GALAXY 33 (G-33)        
1 54026U 22128A   26003.23809749  .00000083  00000+0  00000+0 0  9994
2 54026   0.0160  55.0587 0002407 224.8560 135.6486  1.00268795 12088
GALAXY 34 (G-34)        
1 54027U 22128B   26003.23946927  .00000000  00000+0  00000+0 0  9994
2 54027   0.0244  32.1853 0001483 250.6248 137.3335  1.00269324 12257
ANGOSAT 2               
1 54033U 22131A   26003.25140534  .00000139  00000+0  00000+0 0  9990
2 54033   0.0209 107.4474 0000308 350.7701 118.1505  1.00270592 11828
EUTELSAT HOTBIRD 13F    
1 54048U 22134A   26002.32071740  .00000095  00000+0  00000+0 0  9999
2 54048   0.0547 290.9517 0002233  63.2782 236.1618  1.00270503 11715
LDPE-2                  
1 54219U 22144A   26003.24625921 -.00000195  00000+0  00000+0 0  9990
2 54219   5.2436  64.8070 0002639 255.6881 119.5540  1.02055424 10181
EUTELSAT HOTBIRD 13G    
1 54225U 22146A   26002.32071740  .00000095  00000+0  00000+0 0  9999
2 54225   0.0627 223.9235 0001902 321.9582  44.5151  1.00270009  5805
ZHONGXING-19            
1 54230U 22148A   26003.27922551 -.00000076  00000+0  00000+0 0  9997
2 54230   0.0177  69.6716 0009099 180.0992 117.0380  1.00270922 11726
GALAXY 31 (G-31)        
1 54243U 22153A   26003.24279740  .00000017  00000+0  00000+0 0  9993
2 54243   0.0221  97.1512 0001882 192.7330 139.3831  1.00270746  5475
GALAXY 32 (G-32)        
1 54244U 22153B   26003.25521677 -.00000170  00000+0  00000+0 0  9995
2 54244   0.0117  35.5670 0002570 281.2299 146.9582  1.00270951 11498
EUTELSAT 10B            
1 54259U 22157A   26003.24880532  .00000071  00000+0  00000+0 0  9991
2 54259   0.0592  94.5013 0000780 100.2619   7.6549  1.00267605 11379
GALAXY 35 (G-35)        
1 54741U 22170A   26003.25462852 -.00000158  00000+0  00000+0 0  9991
2 54741   0.0140  86.0774 0002585 197.3158 178.0422  1.00271441 11246
GALAXY 36 (G-36)        
1 54742U 22170B   26003.25615288  .00000000  00000+0  00000+0 0  9990
2 54742   0.0194  60.1603 0000867 274.1342 131.8127  1.00269286 11120
METEOSAT-12 (MTG-I1)    
1 54743U 22170C   26003.24681197 -.00000004  00000+0  00000+0 0  9997
2 54743   0.7120  27.3064 0001991 247.9646 276.1252  1.00271957 11329
SHIJIAN-23 (SJ-23)      
1 55131U 23002A   26002.73031137 -.00000177  00000+0  00000+0 0  9991
2 55131   3.2929  80.4548 0005527 246.4371 117.3074  1.00513358 10850
APSTAR-6E               
1 55239U 23005A   26002.77412856 -.00000312  00000+0  00000+0 0  9999
2 55239   0.0185 114.2857 0000157 258.4961 142.4038  1.00268202 17030
USA 342                 
1 55263U 23008A   26002.75228841  .00000144  00000+0  00000+0 0  9998
2 55263   0.0251 122.5676 0000573 226.7901  47.6420  1.00271491 10854
LDPE-3A                 
1 55264U 23008B   26003.27489215 -.00000081  00000+0  00000+0 0  9992
2 55264   1.8559  83.2972 0000356 231.0311  29.1363  1.01253503 10160
ELEKTRO-L 4             
1 55506U 23016A   26003.25356153 -.00000054  00000+0  00000+0 0  9992
2 55506   0.0599 260.3078 0002595   1.5191  98.1296  1.00270643 10672
AMAZONAS NEXUS          
1 55508U 23017A   26002.87809344 -.00000277  00000+0  00000+0 0  9994
2 55508   0.0379  40.7686 0003219 273.7945  43.0543  1.00271205  5380
ZHONGXING-26            
1 55686U 23023A   26003.27168546 -.00000350  00000+0  00000+0 0  9997
2 55686   0.0630  70.9480 0001992 262.3423 352.5079  1.00259040 10577
LUCH-5X (OLYMP-K 2)     
1 55841U 23031A   26002.68850135  .00000039  00000+0  00000+0 0  9998
2 55841   0.0426  99.2041 0001715  37.4710 275.4984  1.00271547 10274
GAOFEN-13 02            
1 55912U 23036A   26002.97837513 -.00000212  00000+0  00000+0 0  9993
2 55912   1.0686 340.5400 0004892 325.1135 297.4313  1.00271215 10430
SES-18                  
1 55970U 23038A   26003.20600302 -.00000097  00000+0  00000+0 0  9991
2 55970   0.0171   2.8268 0003209 275.4283 155.6304  1.00271174 10444
SES-19                  
1 55971U 23038B   26003.23740840  .00000092  00000+0  00000+0 0  9991
2 55971   0.0103  21.5687 0001955 263.4150 128.4244  1.00271463 10429
INTELSAT 40E (IS-40E)   
1 56174U 23052A   26003.25521682 -.00000170  00000+0  00000+0 0  9994
2 56174   0.0160  58.5011 0001764 193.4016 211.8552  1.00270789 10171
VIASAT-3 F1             
1 56370U 23060A   26003.25615249  .00000000  00000+0  00000+0 0  9995
2 56370   0.0176  16.4116 0000347  16.9643  72.7817  1.00271116  9784
ARCTURUS                
1 56371U 23060B   26003.18051155  .00000140  00000+0  00000+0 0  9993
2 56371   2.3501  82.0622 0003100  11.8178  99.2005  1.00887892  9800
GS-1                    
1 56372U 23060C   26001.97800196 -.00000100  00000+0  00000+0 0  9993
2 56372   2.2979  81.8411 0004268 249.0903 199.0473  1.00305459  5874
BEIDOU-3 G4             
1 56564U 23066A   26003.27853218 -.00000107  00000+0  00000+0 0  9997
2 56564   0.7686 303.9295 0002148 235.8447 183.4173  1.00270028  9741
ARABSAT-7B (BADR-8)     
1 56757U 23075A   26002.53874039  .00000151  00000+0  00000+0 0  9991
2 56757   0.0735  28.6367 0004080 298.0037 355.4778  1.00270180  9456
NVS-01 (IRNSS-1J)       
1 56759U 23076A   26003.05839745 -.00000329  00000+0  00000+0 0  9995
2 56759   2.5658 250.8292 0009233  20.1302 342.2160  1.00265954  9462
NUSANTARA TIGA (SATRIA) 
1 57045U 23086A   26002.99045037 -.00000231  00000+0  00000+0 0  9992
2 57045   0.0351 336.7917 0005294 321.7028 306.6731  1.00265552  8102
H2SAT (HEINRICH HERTZ)  
1 57213U 23093A   26002.67636794  .00000008  00000+0  00000+0 0  9999
2 57213   0.0406 103.2639 0000744 202.7012  40.5303  1.00269612  9251
SYRACUSE 4B             
1 57214U 23093B   26003.10114141 -.00000050  00000+0  00000+0 0  9994
2 57214   0.0039 102.8431 0000450 204.9361 184.7785  1.00270948  5316
JUPITER 3 (ECHOSTAR 24) 
1 57479U 23108A   26002.97942002  .00000000  00000+0  00000+0 0  9997
2 57479   0.0218  26.9587 0001069 251.7040  81.3252  1.00269235  8992
GALAXY 37 (G-37)        
1 57493U 23112A   26003.24016044  .00000052  00000+0  00000+0 0  9994
2 57493   0.0154  23.1048 0002346 261.0810 138.1321  1.00270259  8880
LUDI TANCE-4 01A        
1 57624U 23120A   26003.05051074 -.00000164  00000+0  00000+0 0  9995
2 57624  15.2186 198.0481 0006838  88.6120 283.9265  1.00267940  8899
TJS-10                  
1 58204U 23169A   26002.63563310  .00000006  00000+0  00000+0 0  9991
2 58204   2.1174  82.5331 0006377 176.4221 245.1010  1.00270938  7880
ZHONGXING-6E            
1 58253U 23172A   26003.10947789 -.00000357  00000+0  00000+0 0  9998
2 58253   0.0284  82.8123 0003617 221.3385 313.5265  1.00270678  8008
YAOGAN-41               
1 58582U 23197A   26003.27125213 -.00000353  00000+0  00000+0 0  9994
2 58582   3.4376 310.8605 0008585 198.1680 174.7283  1.00270194  7671
OVZON-3                 
1 58698U 24003A   26003.25851205  .00000000  00000+0  00000+0 0  9992
2 58698   0.0143  57.0488 0000299 255.4168 303.1690  1.00271917  5789
INSAT-3DS               
1 58990U 24033A   26002.62116091 -.00000149  00000+0  00000+0 0  9992
2 58990   0.0820  95.4591 0001634 186.0844 126.4101  1.00269711 45406
MERAH PUTIH 2           
1 58995U 24035A   26003.10947789  .00000000  00000+0  00000+0 0  9994
2 58995   0.0254  35.4650 0001439 241.7523 337.8701  1.00266430  6932
TJS-11                  
1 59020U 24037A   26002.70002809 -.00000357  00000+0  00000+0 0  9992
2 59020   4.4253 325.1405 0005786 348.2182 161.2002  1.00277416  6927
HULIANWAN GAOGUI-01 (H*)
1 59069U 24040A   26003.11083111  .00000161  00000+0  00000+0 0  9992
2 59069   0.0492 314.2675 0003694   3.6653 218.3742  1.00275862  5675
EUTELSAT 36D            
1 59346U 24059A   26002.89733354  .00000000  00000+0  00000+0 0  9997
2 59346   0.0269  44.4568 0000788 276.1018 140.9010  1.00271755  6497
PAKSAT-MM1              
1 59915U 24104A   26003.25443869  .00000158  00000+0  00000+0 0  9994
2 59915   0.0265  88.0979 0002976 191.3842 313.1841  1.00268058  5878
ASTRA 1P (SES-24)       
1 60086U 24115A   26002.53735372  .00000127  00000+0  00000+0 0  9996
2 60086   0.0727 320.2246 0006406 323.0750  31.5157  1.00271983  5539
GOES 19                 
1 60133U 24119A   26003.22190777 -.00000244  00000+0  00000+0 0  9995
2 60133   0.0080 267.8180 0001336  50.2222 149.4949  1.00270278  5317
ZHONGXING-3A            
1 60179U 24122A   26003.26683211 -.00000309  00000+0  00000+0 0  9995
2 60179   0.0387 125.0844 0001174 181.4143 354.0416  1.00270593  5658
TURKSAT 6A              
1 60233U 24127A   26003.20253418  .00000000  00000+0  00000+0 0  9994
2 60233   0.0137 197.4247 0004637  63.6550 316.6282  1.00271984  5360
HULIANWAN GAOGUI-02 (H*)
1 60327U 24135A   26003.27723216 -.00000170  00000+0  00000+0 0  9991
2 60327   0.0237  43.4845 0005633 266.8152  45.4857  1.00270035  5845
ZHONGXING-4A            
1 60606U 24151A   26003.15114303 -.00000356  00000+0  00000+0 0  9993
2 60606   1.7403 272.5928 0001628  49.0707 313.7328  1.00272458  5106
HULIANWAN GAOGUI-03 (H*)
1 61503U 24181A   26003.34442565 -.00000237  00000+0  00000+0 0  9996
2 61503   0.0210  44.1594 0000624 199.0397 266.6325  1.00272289  5171
DSN-3 (KIRAMEKI-3)      
1 61733U 24198A   26003.27541215 -.00000246  00000+0  00000+0 0  9993
2 61733   0.0165 355.1944 0001829 307.5732  43.3402  1.00271449  4268
KOREASAT 6A             
1 61910U 24206A   26003.26986545 -.00000358  00000+0  00000+0 0  9992
2 61910   0.0153  88.5010 0000738 162.7553  64.7878  1.00272108  4181
OPTUS-X (ADS-01)        
1 62006U 24212A   26003.27454549 -.00000279  00000+0  00000+0 0  9993
2 62006   0.0172  19.8792 0001635 261.2546  60.2006  1.00270738  4100
GSAT-N2 (GSAT-20)       
1 62028U 24214A   26003.18900494 -.00000015  00000+0  00000+0 0  9992
2 62028   0.0743 260.8016 0002899   5.8529 332.1616  1.00270006  4242
SXM-9                   
1 62259U 24234A   26002.87332674 -.00000199  00000+0  00000+0 0  9997
2 62259   0.0143 344.6778 0004083 308.2743  38.7828  1.00270009  3913
TJS-12                  
1 62374U 24246A   26003.27593216 -.00000226  00000+0  00000+0 0  9995
2 62374   1.0542 289.2320 0001732 331.8535  87.6759  1.00268899  3911
NUVIEW ALPHA            
1 62455U 24252B   26003.25833328 -.00000211  00000+0  00000+0 0  9995
2 62455   0.0473  30.9919 0002175 284.6961 157.0880  1.00269891  2175
AGILA                   
1 62456U 24252C   26003.10322391 -.00000178  00000+0  00000+0 0  9995
2 62456   0.0460 134.1876 0001930 145.8735  11.9806  1.00269681  3507
NUVIEW BRAVO            
1 62457U 24252D   26003.25833334 -.00000211  00000+0  00000+0 0  9994
2 62457   0.0727 172.1225 0001728  75.9469 224.6938  1.00269847  2148
THURAYA-4               
1 62483U 25001A   26003.25565204  .00000143  00000+0  00000+0 0  9997
2 62483   0.0187  63.9293 0000431 260.3399 274.9456  1.00272070  2528
SHIJIAN-25 (SJ-25)      
1 62485U 25002A   26002.61586586 -.00000347  00000+0  00000+0 0  9992
2 62485   4.7228  62.0940 0052132 171.0030 218.0688  1.00281647  3708
TJS-14                  
1 62804U 25017A   26003.25045200  .00000120  00000+0  00000+0 0  9995
2 62804   1.1729 288.1430 0003702  20.5999 262.6767  1.00268755  3614
SPAINSAT NG I           
1 62852U 25021A   26003.25261868  .00000155  00000+0  00000+0 0  9991
2 62852   0.2710  86.3107 0000285 166.6389 329.9070  1.00268278  2336
QZS-6 (MICHIBIKI-6)     
1 62876U 25023A   26003.12209786 -.00000227  00000+0  00000+0 0  9997
2 62876   0.0675 276.2243 0002523  26.4122 294.5233  1.00265559  3301
ZHONGXING-10R           
1 63075U 25036A   26003.26865212 -.00000348  00000+0  00000+0 0  9994
2 63075   0.0421 230.1770 0003214 354.8825  85.0626  1.00269755  3291
TJS-15                  
1 63157U 25045A   26002.04519076 -.00000256  00000+0  00000+0 0  9992
2 63157   0.1314  89.1398 0006723 231.7989 251.3573  1.00273592  3095
TIANLIAN 2-04           
1 63361U 25062A   26003.19134495 -.00000125  00000+0  00000+0 0  9998
2 63361   4.7979 276.6988 0036495   4.1834 330.8896  1.00270860  2946
TJS-16                  
1 63397U 25064A   26002.63592176 -.00000100  00000+0  00000+0 0  9994
2 63397   0.6714  81.9211 0005212 229.2427 180.5699  1.00269985  2738
TJS-17                  
1 63524U 25073A   26003.17919153 -.00000066  00000+0  00000+0 0  9995
2 63524   0.6381  83.8412 0004612 213.6761  34.3024  1.00271445  2636
TIANLIAN 2-05           
1 63662U 25084A   26003.03690398  .00000135  00000+0  00000+0 0  9998
2 63662   4.8692 281.6515 0002673  38.1615 176.5544  1.00268556  2720
TJS-19                  
1 63924U 25097A   26003.08608190 -.00000268  00000+0  00000+0 0  9995
2 63924   3.5725 315.0139 0003536 318.7085   1.1708  1.00267483  2481
CHINASAT 3B             
1 64062U 25106A   26003.06585083 -.00000041  00000+0  00000+0 0  9992
2 64062   0.0263 125.1121 0005069 143.4117  25.1771  1.00269883  2401
SXM-10                  
1 64290U 25122A   26002.93850047 -.00000012  00000+0  00000+0 0  9991
2 64290   0.0192  33.0598 0002554 317.0913 334.1010  1.00270795  2020
CHINASAT 9C             
1 64470U 25132A   26003.12244453 -.00000243  00000+0  00000+0 0  9998
2 64470   0.0138  76.3861 0004010 191.4893 331.1527  1.00273203  2491
MTG-S1                  
1 64723U 25143A   26003.24620530 -.00000026  00000+0  00000+0 0  9997
2 64723   0.7474 317.0935 0003322 315.6871 275.3179  1.00270011  1765
DROR 1                  
1 64784U 25148A   26003.24603197 -.00000030  00000+0  00000+0 0  9994
2 64784   0.0082  44.7817 0003362 273.5976 229.0511  1.00271401  1642
SHIYAN-29               
1 65486U 25196A   26002.96726420 -.00000279  00000+0  00000+0 0  9995
2 65486  28.6419  20.6151 0010772 190.9616 334.4584  1.00276349  1223
TJS-20                  
1 66142U 25238A   26002.97386069  .00000037  00000+0  00000+0 0  9995
2 66142   5.8378 300.2115 0004790  63.5560 151.8114  1.00271014   679
CMS-03 (GSAT-7R)        
1 66311U 25249B   26003.12270453 -.00000253  00000+0  00000+0 0  9993
2 66311   0.0858 272.7255 0003484 168.9609 158.7717  1.00270226   699
