GPS BIIR-2  (PRN 13)    
1 24876U 97035A   26003.17164289 -.00000024  00000+0  00000+0 0  9995
2 24876  55.9052 105.0303 0096946  56.8635 304.0566  2.00563708208649
GPS BIIR-4  (PRN 20)    
1 26360U 00025A   26003.13925953 -.00000068  00000+0  00000+0 0  9995
2 26360  55.0580  25.9724 0038885 244.0396 185.6557  2.00565694187966
GPS BIIR-5  (PRN 22)    
1 26407U 00040A   26003.00519826  .00000078  00000+0  00000+0 0  9998
2 26407  54.8863 221.7231 0124891 302.1308 230.5604  2.00568150186636
GPS BIIR-8  (PRN 16)    
1 27663U 03005A   26002.59342799  .00000084  00000+0  00000+0 0  9990
2 27663  54.9189 221.5486 0148114  52.0917 319.3201  2.00569649167995
GPS BIIR-11 (PRN 19)    
1 28190U 04009A   25365.04004405 -.00000033  00000+0  00000+0 0  9996
2 28190  54.9691 282.4811 0108707 167.9036 317.8170  2.00559962159579
GPS BIIR-13 (PRN 02)    
1 28474U 04045A   26003.27402549 -.00000090  00000+0  00000+0 0  9990
2 28474  55.2296 331.5395 0171091 310.2024  51.3697  2.00570358155121
GPS BIIRM-1 (PRN 17)    
1 28874U 05038A   26002.49159142 -.00000021  00000+0  00000+0 0  9992
2 28874  55.0134 279.8648 0130926 294.0713 182.0494  2.00576923148511
INMARSAT 4-F2 (SOUTHPA*)
1 28899U 05044A   26003.25685083 -.00000260  00000+0  00000+0 0  9994
2 28899   4.8800  43.7434 0002661 242.9874  52.1115  1.00270770 73867
GPS BIIRM-2 (PRN 31)    
1 29486U 06042A   26002.50452788  .00000040  00000+0  00000+0 0  9992
2 29486  54.6962 157.9169 0107183  52.3922 334.4593  2.00553301141077
GPS BIIRM-3 (PRN 12)    
1 29601U 06052A   26002.88544795  .00000081  00000+0  00000+0 0  9998
2 29601  54.9667 220.5587 0088230  87.7331 273.3561  2.00574943140091
GPS BIIRM-4 (PRN 15)    
1 32260U 07047A   26003.19230824 -.00000037  00000+0  00000+0 0  9990
2 32260  53.9698  86.8720 0163904  85.4799 276.4158  2.00563513133501
COSMOS 2433 (720)       
1 32275U 07052A   26002.73674622 -.00000066  00000+0  00000+0 0  9991
2 32275  65.6717 321.5011 0004831 259.4658 100.4695  2.13103822141532
COSMOS 2432 (719)       
1 32276U 07052B   26002.34004419 -.00000066  00000+0  00000+0 0  9990
2 32276  65.6878 321.6390 0011387 316.2955  43.7080  2.13103046141544
GPS BIIRM-5 (PRN 29)    
1 32384U 07062A   26003.25294243 -.00000024  00000+0  00000+0 0  9992
2 32384  55.1635 280.7826 0031520 161.9347  12.3709  2.00549741132204
COSMOS 2434 (721)       
1 32393U 07065A   26002.49065394  .00000099  00000+0  00000+0 0  9994
2 32393  64.3165 197.5025 0004868  72.5758 349.1148  2.13101157140248
COSMOS 2436 (723)       
1 32395U 07065C   25365.93103822  .00000122  00000+0  00000+0 0  9992
2 32395  64.3250 197.6257 0017833  10.4571  67.7498  2.13100063140160
GPS BIIRM-6 (PRN 07)    
1 32711U 08012A   26002.61371474  .00000036  00000+0  00000+0 0  9995
2 32711  54.4794 156.5395 0203435 245.2090 112.6275  2.00566468130434
GPS BIIRM-8 (PRN 05)    
1 35752U 09043A   26003.10274810 -.00000060  00000+0  00000+0 0  9997
2 35752  56.1060  33.9407 0051420  81.5193 289.1723  2.00564209120055
COSMOS 2456 (730)       
1 36111U 09070A   26003.24579882 -.00000018  00000+0  00000+0 0  9992
2 36111  64.9117  76.6030 0003901 296.9922 141.2232  2.13103454124911
COSMOS 2457 (733)       
1 36112U 09070B   26002.50739450 -.00000022  00000+0  00000+0 0  9995
2 36112  64.8966  76.4753 0004143 166.5862 194.0955  2.13100844124904
COSMOS 2460 (732)       
1 36402U 10007C   26003.11051176 -.00000066  00000+0  00000+0 0  9997
2 36402  65.5176 320.0525 0002361 291.6646 171.5190  2.13105984123216
GPS BIIF-1  (PRN 25)    
1 36585U 10022A   26003.10008525  .00000078  00000+0  00000+0 0  9997
2 36585  54.2971 215.2121 0126839  65.3299  61.1386  2.00554220114285
BEIDOU-2 IGSO-1 (C06)   
1 36828U 10036A   25363.86987282 -.00000041  00000+0  00000+0 0  9990
2 36828  54.2895 164.4935 0051607 215.8351 139.2797  1.00270697 56391
BEIDOU-2 G4 (C04)       
1 37210U 10057A   26003.27861884 -.00000111  00000+0  00000+0 0  9993
2 37210   3.2364  69.8498 0010883 196.5691  96.8390  1.00270248 55632
BEIDOU-2 IGSO-2 (C07)   
1 37256U 10068A   26002.68705734 -.00000194  00000+0  00000+0 0  9991
2 37256  47.8453 273.8897 0048120 215.0955 328.9319  1.00278965 55139
BEIDOU-2 IGSO-3 (C08)   
1 37384U 11013A   25363.69360016 -.00000178  00000+0  00000+0 0  9996
2 37384  62.1654  41.7546 0034563 188.2241 225.1911  1.00266181 53964
GSAT-8 (GAGAN/PRN 127)  
1 37605U 11022A   26003.18640492  .00000087  00000+0  00000+0 0  9995
2 37605   1.7050  83.9438 0009164 189.7918 311.2661  1.00271146 51563
BEIDOU-2 IGSO-4 (C09)   
1 37763U 11038A   26002.90929362  .00000000  00000+0  00000+0 0  9997
2 37763  54.5876 167.1583 0150472 230.3471 127.2644  1.00277856 52989
GSAT0101 (GALILEO-PFM)  
1 37846U 11060A   25365.08501047 -.00000075  00000+0  00000+0 0  9993
2 37846  57.0484 346.3225 0003399 324.8931  35.0863  1.70475470 88250
GSAT0102 (GALILEO-FM2)  
1 37847U 11060B   26003.24325861 -.00000089  00000+0  00000+0 0  9995
2 37847  57.0483 346.2371 0005327 317.3009 226.4457  1.70475715 88311
COSMOS 2476 (744)       
1 37867U 11064A   26003.23569699 -.00000017  00000+0  00000+0 0  9990
2 37867  65.1733  78.4446 0024650 235.9410 102.8663  2.13103610110243
COSMOS 2477 (745)       
1 37868U 11064B   26003.02737059 -.00000018  00000+0  00000+0 0  9996
2 37868  65.1798  78.5292 0021667 236.6062 123.2382  2.13102738110235
COSMOS 2475 (743)       
1 37869U 11064C   26003.17007816 -.00000018  00000+0  00000+0 0  9994
2 37869  65.1866  78.5447 0026964 249.8725 175.2948  2.13101393110254
BEIDOU-2 IGSO-5 (C10)   
1 37948U 11073A   26002.71483361 -.00000155  00000+0  00000+0 0  9996
2 37948  47.9798 273.5983 0109309 221.8769 318.2741  1.00285891 51478
LUCH 5A (SDCM/PRN 140)  
1 37951U 11074B   26002.92333372 -.00000053  00000+0  00000+0 0  9997
2 37951   8.3333  76.2682 0005434 198.0850 327.5385  1.00269257 51398
BEIDOU-2 G5 (C05)       
1 38091U 12008A   26003.18709826  .00000059  00000+0  00000+0 0  9996
2 38091   3.1611  70.6218 0013712 232.7478 285.4954  1.00271537 50712
BEIDOU-2 M3 (C11)       
1 38250U 12018A   26002.26861435 -.00000078  00000+0  00000+0 0  9999
2 38250  55.9021 310.4683 0023805 275.9869  83.7373  1.86229804 92856
BEIDOU-2 M4 (C12)       
1 38251U 12018B   26002.20069264 -.00000078  00000+0  00000+0 0  9994
2 38251  55.8035 309.6978 0015032 280.4826  79.3442  1.86229489 92852
SES-5 (EGNOS/PRN 136)   
1 38652U 12036A   26003.09558649  .00000038  00000+0  00000+0 0  9992
2 38652   0.0576 306.1036 0002231 334.6039 221.3949  1.00270436 42806
BEIDOU-2 M6 (C14)       
1 38775U 12050B   25365.83756264 -.00000051  00000+0  00000+0 0  9995
2 38775  56.3946  68.4334 0011787 342.2134  17.7940  1.86230700 90190
GSAT-10 (GAGAN/PRN 128) 
1 38779U 12051B   26003.12062451 -.00000160  00000+0  00000+0 0  9991
2 38779   0.0455 253.6837 0001614 220.9890 114.4983  1.00270635 48440
GPS BIIF-3  (PRN 24)    
1 38833U 12053A   26003.28971192  .00000021  00000+0  00000+0 0  9997
2 38833  53.5611 150.3561 0176250  64.2720 297.4901  2.00565083 96131
GSAT0103 (GALILEO-FM3)  
1 38857U 12055A   26001.29838235 -.00000022  00000+0  00000+0 0  9996
2 38857  55.7028 106.1292 0003054 271.3657  88.5772  1.70473256 82163
BEIDOU-2 G6 (C02)       
1 38953U 12059A   26003.19186497 -.00000175  00000+0  00000+0 0  9993
2 38953   4.0022  75.2922 0008310 290.8934 249.6996  1.00272525 48250
LUCH 5B (SDCM/PRN 125)  
1 38977U 12061A   26002.95826059 -.00000140  00000+0  00000+0 0  9992
2 38977  10.1255  51.4995 0006902 199.8796 179.8689  1.00272143 47952
COSMOS 2485 (747)       
1 39155U 13019A   26002.73093046 -.00000020  00000+0  00000+0 0  9990
2 39155  65.3240  79.1617 0025173 231.5561 128.2681  2.13102896 98756
GPS BIIF-4  (PRN 27)    
1 39166U 13023A   26002.65543276 -.00000013  00000+0  00000+0 0  9995
2 39166  54.6339 275.7173 0139142  48.9030 312.3416  2.00564442 92562
IRNSS-1A                
1 39199U 13034A   26002.75826846  .00000049  00000+0  00000+0 0  9999
2 39199  35.3639  66.2506 0026601 147.0291 217.2977  1.00276989 45710
GPS BIIF-5  (PRN 30)    
1 39533U 14008A   26002.65026767  .00000034  00000+0  00000+0 0  9990
2 39533  53.6306 156.0719 0079986 226.2950 133.0043  2.00549351 86368
ASTRA 5B (EGNOS/PRN 123)
1 39617U 14011B   26003.25149200  .00000141  00000+0  00000+0 0  9991
2 39617   0.0478 338.9027 0004724 302.1032 295.9084  1.00268198 43017
COSMOS 2492 (754)       
1 39620U 14012A   26002.22027221 -.00000065  00000+0  00000+0 0  9996
2 39620  65.3960 319.5766 0014264 314.9620  44.9127  2.13103072 91703
IRNSS-1B                
1 39635U 14017A   26001.75968725  .00000148  00000+0  00000+0 0  9998
2 39635  29.2191 243.2497 0018450 175.6398  11.1782  1.00274815 43128
LUCH 5V (SDCM/PRN 141)  
1 39727U 14023A   26003.26561876 -.00000269  00000+0  00000+0 0  9996
2 39727   4.7223  71.3434 0004346 219.0184   2.8945  1.00269800 42709
GPS BIIF-6  (PRN 06)    
1 39741U 14026A   26002.93327303 -.00000089  00000+0  00000+0 0  9993
2 39741  56.5751 337.9522 0039651 319.9311  39.7683  2.00559670 85224
COSMOS 2500 (755)       
1 40001U 14032A   26001.92294644 -.00000065  00000+0  00000+0 0  9994
2 40001  65.3319 319.3474 0007333 219.5076 140.4299  2.13105917 89916
GPS BIIF-7  (PRN 09)    
1 40105U 14045A   25365.52654356 -.00000036  00000+0  00000+0 0  9999
2 40105  55.2403  95.1490 0032139 120.2740 240.0487  2.00573586 82712
GSAT0201 (GALILEO 5)    
1 40128U 14050A   26002.94829103 -.00000039  00000+0  00000+0 0  9992
2 40128  49.0521 280.1981 1650084 173.0802 189.5728  1.85519592 75256
GSAT0202 (GALILEO 6)    
1 40129U 14050B   26002.12649448 -.00000037  00000+0  00000+0 0  9993
2 40129  49.0692 279.3155 1650607 173.7795 188.6138  1.85520237 77400
IRNSS-1C                
1 40269U 14061A   26002.77580552 -.00000162  00000+0  00000+0 0  9990
2 40269   6.0952  92.2030 0018210   0.2093  12.3407  1.00271855 41031
GPS BIIF-8  (PRN 03)    
1 40294U 14068A   26002.39960778 -.00000053  00000+0  00000+0 0  9994
2 40294  56.8732  37.3469 0060942  68.7710 291.9428  2.00565943 81888
COSMOS 2501 (702K)      
1 40315U 14075A   26003.12143340  .00000087  00000+0  00000+0 0  9992
2 40315  63.6154 196.0841 0020119 203.9107 156.0343  2.13101212 86339
GPS BIIF-9  (PRN 26)    
1 40534U 15013A   26002.52954731  .00000086  00000+0  00000+0 0  9994
2 40534  53.1950 211.0289 0107775  38.9551 321.8840  2.00561304 78509
GSAT0203 (GALILEO 7)    
1 40544U 15017A   26002.20939857 -.00000086  00000+0  00000+0 0  9997
2 40544  56.8412 346.1221 0006394 278.0232  81.8970  1.70475637 66375
GSAT0204 (GALILEO 8)    
1 40545U 15017B   26001.87832881 -.00000084  00000+0  00000+0 0  9997
2 40545  56.8477 346.1488 0006019 269.6561  90.2691  1.70475336 29411
BEIDOU-3S IGSO-1S (C31) 
1 40549U 15019A   26002.76667519 -.00000190  00000+0  00000+0 0  9994
2 40549  49.5099 297.4601 0036403 193.2379 342.9004  1.00287850 39419
GPS BIIF-10 (PRN 08)    
1 40730U 15033A   26002.69071833 -.00000010  00000+0  00000+0 0  9993
2 40730  54.1125 273.9102 0112149  27.3707 333.2713  2.00564405 76676
BEIDOU-3S M2S (C58)     
1 40748U 15037A   25365.25789088 -.00000075  00000+0  00000+0 0  9998
2 40748  55.0219 307.8286 0011607 271.8056  88.0591  1.86229554 70993
BEIDOU-3S M1S (C57)     
1 40749U 15037B   26002.63316528 -.00000076  00000+0  00000+0 0  9996
2 40749  55.0160 307.7357 0003832   5.7177 354.2864  1.86253804 71049
GSAT0205 (GALILEO 9)    
1 40889U 15045A   26002.82009310  .00000072  00000+0  00000+0 0  9994
2 40889  54.9972 226.1750 0006239  42.9942 317.1479  1.70473114 64190
GSAT0206 (GALILEO 10)   
1 40890U 15045B   26001.86756368  .00000078  00000+0  00000+0 0  9997
2 40890  54.9963 226.1964 0004253  43.8493 316.2806  1.70473168 64209
BEIDOU-3S IGSO-2S (C56) 
1 40938U 15053A   26001.15032749 -.00000110  00000+0  00000+0 0  9999
2 40938  49.4797 260.7757 0061044 188.0162 161.6916  1.00264809 37674
GPS BIIF-11 (PRN 10)    
1 41019U 15062A   26002.75007689 -.00000055  00000+0  00000+0 0  9990
2 41019  56.8476  37.1896 0111270 230.4788 128.5917  2.00567009 74510
GSAT-15 (GAGAN/PRN 139) 
1 41028U 15065A   26003.12058479 -.00000253  00000+0  00000+0 0  9998
2 41028   0.0136  72.0746 0002320 188.3017 339.2728  1.00271499 37140
GSAT0209 (GALILEO 12)   
1 41174U 15079A   26001.44897034 -.00000023  00000+0  00000+0 0  9991
2 41174  55.7209 105.8397 0004559 304.2577  55.6778  1.70474416 61932
GSAT0208 (GALILEO 11)   
1 41175U 15079B   26001.66914512 -.00000024  00000+0  00000+0 0  9998
2 41175  55.7223 105.8307 0002549 330.1387  29.8258  1.70474096 62351
IRNSS-1E                
1 41241U 16003A   25362.63404722 -.00000302  00000+0  00000+0 0  9992
2 41241  32.8599  62.2206 0020852 188.3547 186.7898  1.00276785 36373
GPS BIIF-12 (PRN 32)    
1 41328U 16007A   26002.33455977 -.00000034  00000+0  00000+0 0  9991
2 41328  55.4175  96.0392 0093177 244.1561 114.8892  2.00559522 72514
COSMOS 2514 (751)       
1 41330U 16008A   26003.10551882 -.00000065  00000+0  00000+0 0  9997
2 41330  65.1210 318.6723 0011190 219.5586 140.3516  2.13102477 77108
IRNSS-1F                
1 41384U 16015A   26002.96788065  .00000158  00000+0  00000+0 0  9994
2 41384   4.9345 100.7731 0021735 183.6185 199.0244  1.00269003 36016
BEIDOU-2 IGSO-6 (C13)   
1 41434U 16021A   25363.87100888 -.00000149  00000+0  00000+0 0  9998
2 41434  59.9892  39.7261 0060724 230.9563 235.3434  1.00289362 35783
IRNSS-1G                
1 41469U 16027A   26002.70184810 -.00000333  00000+0  00000+0 0  9997
2 41469   4.7861 101.5636 0002875 322.0033  61.0083  1.00269497 35520
GSAT0211 (GALILEO 14)   
1 41549U 16030A   26001.79332345  .00000079  00000+0  00000+0 0  9992
2 41549  55.1460 226.2709 0004117  20.0947 340.0179  1.70473212 59835
GSAT0210 (GALILEO 13)   
1 41550U 16030B   26002.05069814  .00000077  00000+0  00000+0 0  9990
2 41550  55.1454 226.2618 0000581 175.3551 184.7414  1.70473514 59835
BEIDOU-2 G7 (C03)       
1 41586U 16037A   26003.10947789 -.00000351  00000+0  00000+0 0  9995
2 41586   1.8077  67.9886 0004962   2.8558 181.8391  1.00273706  5239
EUTELSAT 117 WEST B (W*)
1 41589U 16038B   26003.00969049 -.00000006  00000+0  00000+0 0  9998
2 41589   0.0086 161.9795 0000358 259.6528 287.5128  1.00269813 35005
GSAT0207 (GALILEO 15)   
1 41859U 16069A   25364.98252734 -.00000015  00000+0  00000+0 0  9994
2 41859  55.3922 105.7449 0002920 312.4108  47.5439  1.70474331 56538
GSAT0212 (GALILEO 16)   
1 41860U 16069B   26002.18249310 -.00000025  00000+0  00000+0 0  9995
2 41860  55.3912 105.6792 0002094  10.7452 349.2398  1.70474613 56822
GSAT0213 (GALILEO 17)   
1 41861U 16069C   26003.13661022 -.00000025  00000+0  00000+0 0  9990
2 41861  55.3941 105.6604 0003126 283.6477  76.3025  1.70474867 56705
GSAT0214 (GALILEO 18)   
1 41862U 16069D   26002.69604439 -.00000025  00000+0  00000+0 0  9990
2 41862  55.3924 105.6655 0002168 287.4428  72.5163  1.70474679 56821
SES-15 (WAAS/PRN 133)   
1 42709U 17026A   26003.23946995  .00000064  00000+0  00000+0 0  9994
2 42709   0.0203 340.7824 0000567 312.9074 126.2189  1.00268593  5773
QZS-2 (QZSS/PRN 194)    
1 42738U 17028A   26001.53427786 -.00000102  00000+0  00000+0 0  9995
2 42738  39.6821 245.5914 0754407 269.7072 280.5612  1.00277886  5957
QZS-3 (QZSS/PRN 199)    
1 42917U 17048A   26003.24558606 -.00000344  00000+0  00000+0 0  9990
2 42917   0.0677 148.7873 0001784 126.7117  42.8243  1.00272162 30601
COSMOS 2522 (752)       
1 42939U 17055A   26002.00528789  .00000106  00000+0  00000+0 0  9999
2 42939  64.0774 197.5385 0006227 222.3824 137.6187  2.13101751 64436
QZS-4 (QZSS/PRN 195)    
1 42965U 17062A   26003.27567215 -.00000341  00000+0  00000+0 0  9995
2 42965  40.2110 345.5915 0752090 268.5700  85.4100  1.00297334 30155
BEIDOU-3 M1 (C19)       
1 43001U 17069A   26003.28783147 -.00000043  00000+0  00000+0 0  9998
2 43001  56.5452  68.5216 0010256 303.7806  56.1799  1.86230888 55535
BEIDOU-3 M2 (C20)       
1 43002U 17069B   26003.22622564 -.00000043  00000+0  00000+0 0  9998
2 43002  56.5443  68.5598 0007131 328.0043  32.0104  1.86230696 55529
GSAT0215 (GALILEO 19)   
1 43055U 17079A   26002.59968244  .00000074  00000+0  00000+0 0  9997
2 43055  55.1255 226.0627 0001483 322.3131  37.7706  1.70473981 50160
GSAT0216 (GALILEO 20)   
1 43056U 17079B   26002.89098643  .00000072  00000+0  00000+0 0  9996
2 43056  55.1239 226.0545 0002146 329.8559  30.2248  1.70474064 50189
GSAT0217 (GALILEO 21)   
1 43057U 17079C   26001.93861534  .00000078  00000+0  00000+0 0  9994
2 43057  55.1224 226.0789 0002948  31.0208 329.0927  1.70473511 50153
GSAT0218 (GALILEO 22)   
1 43058U 17079D   25365.39887233  .00000083  00000+0  00000+0 0  9997
2 43058  55.1227 226.1190 0001936 332.2921  27.7931  1.70473905 50152
BEIDOU-3 M7 (C27)       
1 43107U 18003A   26002.96893571 -.00000077  00000+0  00000+0 0  9998
2 43107  54.4774 308.0773 0003138  66.7871 293.2466  1.86232259 54274
BEIDOU-3 M8 (C28)       
1 43108U 18003B   26001.84009747 -.00000077  00000+0  00000+0 0  9999
2 43108  54.4713 308.0991 0004462 280.1109  79.8369  1.86230795 54269
BEIDOU-3 M4 (C22)       
1 43207U 18018A   25365.13433148 -.00000051  00000+0  00000+0 0  9997
2 43207  56.5007  68.6956 0004603   0.4323 359.6143  1.86230683 53619
BEIDOU-3 M3 (C21)       
1 43208U 18018B   25365.20082505 -.00000051  00000+0  00000+0 0  9993
2 43208  56.5006  68.6978 0007426 314.5957  45.3901  1.86231092 53617
BEIDOU-3 M9 (C29)       
1 43245U 18029A   26002.56504723 -.00000074  00000+0  00000+0 0  9990
2 43245  54.3460 305.7416 0001305 294.7946  65.1944  1.86227778 52811
BEIDOU-3 M10 (C30)      
1 43246U 18029B   26003.03716412 -.00000074  00000+0  00000+0 0  9994
2 43246  54.3434 305.7527 0004402   5.4011 354.6074  1.86228818 52802
IRNSS-1I                
1 43286U 18035A   26002.84261073  .00000060  00000+0  00000+0 0  9995
2 43286  29.2002  76.7686 0021768 184.0942 200.0669  1.00277171 28427
COSMOS 2527 (756)       
1 43508U 18053A   26001.96621490 -.00000023  00000+0  00000+0 0  9997
2 43508  65.4824  79.4559 0009103 231.0150 128.9505  2.13102077 58731
BEIDOU-2 IGSO-7 (C16)   
1 43539U 18057A   26001.07734399 -.00000061  00000+0  00000+0 0  9992
2 43539  55.1805 164.5028 0093439 235.0504 198.5658  1.00250688 27453
GSAT0221 (GALILEO 25)   
1 43564U 18060A   26002.06121773 -.00000084  00000+0  00000+0 0  9995
2 43564  57.2227 346.2687 0006706 289.8465  70.0746  1.70475491 46334
GSAT0222 (GALILEO 26)   
1 43565U 18060B   26001.69400508 -.00000083  00000+0  00000+0 0  9999
2 43565  57.2265 346.2817 0005956 269.8339  90.0928  1.70475181 46370
GSAT0219 (GALILEO 23)   
1 43566U 18060C   25365.15537660 -.00000075  00000+0  00000+0 0  9994
2 43566  57.2261 346.3249 0005911 292.7910  67.1478  1.70475422 46326
GSAT0220 (GALILEO 24)   
1 43567U 18060D   26001.54947179 -.00000082  00000+0  00000+0 0  9994
2 43567  57.2253 346.2874 0006245 290.9643  68.9644  1.70475189 46330
BEIDOU-3 M5 (C23)       
1 43581U 18062A   25365.03996788  .00000126  00000+0  00000+0 0  9996
2 43581  54.0904 188.0206 0001849   0.7827 359.2534  1.86228392 50508
BEIDOU-3 M6 (C24)       
1 43582U 18062B   26002.05074676  .00000094  00000+0  00000+0 0  9995
2 43582  54.0898 187.9413 0007774  49.7778 310.3129  1.86229277 50545
BEIDOU-3 M12 (C26)      
1 43602U 18067A   26002.52573645  .00000084  00000+0  00000+0 0  9994
2 43602  54.1839 186.6578 0009181  42.1791 317.9072  1.86227563 50038
BEIDOU-3 M11 (C25)      
1 43603U 18067B   26001.04943894  .00000111  00000+0  00000+0 0  9999
2 43603  54.1816 186.6720 0005573  38.6629 321.4044  1.86227084 50031
BEIDOU-3 M13 (C32)      
1 43622U 18072A   26003.15367519 -.00000044  00000+0  00000+0 0  9990
2 43622  56.4772  68.1115 0006760 299.1520  60.8384  1.86230782 49581
BEIDOU-3 M14 (C33)      
1 43623U 18072B   26003.01914154 -.00000044  00000+0  00000+0 0  9999
2 43623  56.4787  68.1098 0004023 327.1485  32.8840  1.86230778 49570
BEIDOU-3 M16 (C35)      
1 43647U 18078A   26003.17666405 -.00000074  00000+0  00000+0 0  9994
2 43647  54.2416 305.7717 0007646  21.7726 338.2640  1.86232166 49088
BEIDOU-3 M15 (C34)      
1 43648U 18078B   26002.76895267 -.00000074  00000+0  00000+0 0  9999
2 43648  54.2380 305.7872 0004217  22.3634 337.6580  1.86231991 49099
BEIDOU-3 G1 (C59)       
1 43683U 18085A   26003.27463215 -.00000276  00000+0  00000+0 0  9991
2 43683   2.6600 102.2929 0001645  70.1284 169.4021  1.00273087 26406
COSMOS 2529 (757)       
1 43687U 18086A   26002.06351042  .00000106  00000+0  00000+0 0  9997
2 43687  64.2935 198.2014 0006795 253.2388 106.7368  2.13101881 55749
BEIDOU-3 M17 (C36)      
1 43706U 18093A   26002.41052756  .00000088  00000+0  00000+0 0  9995
2 43706  54.1736 187.9197 0005995 306.6005  66.6022  1.86228213 48454
BEIDOU-3 M18 (C37)      
1 43707U 18093B   26002.78946396  .00000081  00000+0  00000+0 0  9991
2 43707  54.1746 187.8991 0006083 354.0026   6.0064  1.86226191 48453
GPS BIII-1  (PRN 04)    
1 43873U 18109A   26002.72128431 -.00000031  00000+0  00000+0 0  9995
2 43873  55.5786  98.7180 0037551 195.9049 336.5160  2.00554042 51758
BEIDOU-2 G8 (C01)       
1 44231U 19027A   26003.27549882 -.00000245  00000+0  00000+0 0  9999
2 44231   1.7149  74.7469 0008858 257.2931  14.5758  1.00270652 24428
COSMOS 2534 (758)       
1 44299U 19030A   26003.05018546  .00000090  00000+0  00000+0 0  9998
2 44299  64.3673 198.1746 0008548 283.7870 247.5611  2.13101873 51407
BEIDOU-3 IGSO-2 (C39)   
1 44337U 19035A   26002.34255753 -.00000097  00000+0  00000+0 0  9998
2 44337  55.2298 160.3206 0037978 203.0338 341.0261  1.00264332 24009
GPS BIII-2  (PRN 18)    
1 44506U 19056A   26003.17483536 -.00000090  00000+0  00000+0 0  9996
2 44506  55.7128 337.7015 0057762 198.7394 199.0234  2.00566528 46768
BEIDOU-3 M24 (C46)      
1 44542U 19061A   26002.86023213  .00000081  00000+0  00000+0 0  9998
2 44542  54.4010 188.3033 0009530  26.9057 333.1604  1.86228984 42719
BEIDOU-3 M23 (C45)      
1 44543U 19061B   26002.45759021  .00000088  00000+0  00000+0 0  9994
2 44543  54.3998 188.2851 0005958  26.0409 336.7085  1.86227209 42714
EUTELSAT 5 WEST B (EGN*)
1 44624U 19067A   26003.24585863 -.00000038  00000+0  00000+0 0  9995
2 44624   0.0746 326.7756 0003464 315.2326 264.3592  1.00270782 22781
BEIDOU-3 M22 (C44)      
1 44793U 19078A   26002.70013703 -.00000074  00000+0  00000+0 0  9993
2 44793  54.0888 305.6511 0006214  25.2714 334.7620  1.86231784 41568
BEIDOU-3 M21 (C43)      
1 44794U 19078B   26002.83829078 -.00000074  00000+0  00000+0 0  9998
2 44794  54.0619 305.6110 0004369  15.4501 344.5668  1.86227515 41579
COSMOS 2544 (759)       
1 44850U 19088A   26003.31858697 -.00000016  00000+0  00000+0 0  9991
2 44850  65.4707  79.2372 0014584 252.0468 107.8473  2.13101788 47205
BEIDOU-3 M19 (C41)      
1 44864U 19090A   26003.11244968 -.00000044  00000+0  00000+0 0  9998
2 44864  56.4110  68.2525 0018683 286.4463  93.3255  1.86231088 41168
BEIDOU-3 M20 (C42)      
1 44865U 19090B   26002.40961516 -.00000046  00000+0  00000+0 0  9997
2 44865  56.4121  68.3103 0015889 298.4394  59.7320  1.86231103 41128
BEIDOU-3 G2 (C60)       
1 45344U 20017A   26003.13864310 -.00000137  00000+0  00000+0 0  9997
2 45344   2.5364  44.3312 0002694 241.6295 306.7428  1.00270305 21606
COSMOS 2545 (760)       
1 45358U 20018A   26002.10646152 -.00000066  00000+0  00000+0 0  9992
2 45358  64.4572 318.2561 0011029 251.1629 108.7091  2.13102371 45128
BEIDOU-3 G3 (C61)       
1 45807U 20040A   26003.26873878 -.00000351  00000+0  00000+0 0  9998
2 45807   2.0420  66.7543 0003342 290.8573 312.4761  1.00273069 20410
GPS BIII-3  (PRN 23)    
1 45854U 20041A   26003.23585856 -.00000058  00000+0  00000+0 0  9998
2 45854  56.5624  35.3482 0060793 204.1709 181.3219  2.00561245 40733
GALAXY 30 (WAAS/PRN 135)
1 46114U 20056C   26003.24085431  .00000041  00000+0  00000+0 0  9990
2 46114   0.0154   2.4324 0002533 283.5037 138.6296  1.00272142 19637
COSMOS 2547 (705K)      
1 46805U 20075A   26001.82544340  .00000110  00000+0  00000+0 0  9996
2 46805  64.5975 198.0254 0006067 226.7479 133.2529  2.13099980 40365
GPS BIII-4  (PRN 14)    
1 46826U 20078A   25350.04599424  .00000067  00000+0  00000+0 0  9996
2 46826  54.0144 218.2068 0064754 203.3806 339.3958  2.00566891 37839
GPS BIII-5  (PRN 11)    
1 48859U 21054A   26003.09295219 -.00000091  00000+0  00000+0 0  9993
2 48859  55.2484 339.0966 0024520 234.3980 203.6336  2.00552262 33443
QZS-1R (QZSS/PRN 196)   
1 49336U 21096A   26001.56293902 -.00000289  00000+0  00000+0 0  9996
2 49336  37.1173  82.0646 0757908 271.7285  83.4727  1.00250053 15343
GSAT0223 (GALILEO 27)   
1 49809U 21116A   26001.11286148 -.00000080  00000+0  00000+0 0  9998
2 49809  57.2147 346.1898 0004373 260.2203 282.5125  1.70475295 25337
GSAT0224 (GALILEO 28)   
1 49810U 21116B   26002.10114279 -.00000085  00000+0  00000+0 0  9990
2 49810  57.2154 346.1614 0003704 266.1198 275.7370  1.70475338 25376
COSMOS 2557 (706K)      
1 52984U 22075A   26002.92914218 -.00000067  00000+0  00000+0 0  9992
2 52984  64.3974 320.3073 0013408 279.1337  80.7056  2.13101619 27198
COSMOS 2559 (707K)      
1 54031U 22130A   26002.27910730 -.00000067  00000+0  00000+0 0  9992
2 54031  64.3701 320.4184 0011311 190.8341 169.1327  2.13101100 25152
COSMOS 2564 (761)       
1 54377U 22161A   26002.12318049  .00000106  00000+0  00000+0 0  9991
2 54377  64.7396 198.2216 0008544 203.1878 156.8237  2.13101950 24091
GPS BIII-6  (PRN 28)    
1 55268U 23009A   26002.67506794  .00000034  00000+0  00000+0 0  9999
2 55268  55.1074 155.0231 0003751 351.5491 187.3782  2.00553783 21924
BEIDOU-3 G4 (C62)       
1 56564U 23066A   26003.27853218 -.00000107  00000+0  00000+0 0  9997
2 56564   0.7686 303.9295 0002148 235.8447 183.4173  1.00270028  9741
NVS-01 (IRNSS-1J)       
1 56759U 23076A   26003.05839745 -.00000329  00000+0  00000+0 0  9995
2 56759   2.5658 250.8292 0009233  20.1302 342.2160  1.00265954  9462
COSMOS 2569 (703K)      
1 57517U 23114A   26003.07499160 -.00000018  00000+0  00000+0 0  9991
2 57517  65.2053  78.1923 0011346 287.6538  72.2757  2.13103890 18749
BEIDOU-3 M28 (C50)      
1 58654U 23207A   25365.76853009 -.00000052  00000+0  00000+0 0  9997
2 58654  55.6009  67.9567 0003192 279.2785  80.7333  1.86229573 13720
BEIDOU-3 M26 (C48)      
1 58655U 23207B   26001.63992787 -.00000050  00000+0  00000+0 0  9997
2 58655  55.6038  67.9134 0004479 264.7426  95.2575  1.86231079 13726
GSAT0225 (GALILEO 29)   
1 59598U 24079A   26001.23490354 -.00000023  00000+0  00000+0 0  9991
2 59598  55.0125 105.7499 0002169 220.3809 142.4128  1.70474416 10471
GSAT0227 (GALILEO 30)   
1 59600U 24079C   25364.65398144 -.00000013  00000+0  00000+0 0  9995
2 59600  55.0068 105.7930 0002078 121.1900 238.8104  1.70474651 10497
GSAT0232 (GALILEO 32)   
1 61182U 24167A   25363.31340485  .00000079  00000+0  00000+0 0  9999
2 61182  55.2360 225.9758 0001878 195.6650 256.0538  1.70473329  7984
GSAT0226 (GALILEO 31)   
1 61183U 24167B   26002.40830100  .00000076  00000+0  00000+0 0  9996
2 61183  55.2335 225.8683 0001423 109.5945  87.9140  1.70473435  8024
BEIDOU-3 M25 (C47)      
1 61186U 24168B   26003.33914280 -.00000077  00000+0  00000+0 0  9997
2 61186  54.6219 307.9713 0005218 303.0181 233.0535  1.86229754  8714
BEIDOU-3 M27 (C49)      
1 61187U 24168C   26003.03774323 -.00000077  00000+0  00000+0 0  9997
2 61187  54.6176 307.9653 0002535 347.7676 121.1867  1.86229905  6185
GPS BIII-7  (PRN 01)    
1 62339U 24242A   25365.62099949 -.00000080  00000+0  00000+0 0  9993
2 62339  54.9175 340.9757 0013109 346.7353 227.3710  2.00567874  7891
NVS-02 (IRNSS-1K)       
1 62850U 25020A   26003.14488518  .00000721  00000+0  55249-3 0  9997
2 62850  20.9363 319.8955 7347196  40.1338 355.4462  2.17614983  7380
QZS-6 (QZSS/PRN 200)    
1 62876U 25023A   26003.12209786 -.00000227  00000+0  00000+0 0  9997
2 62876   0.0675 276.2243 0002523  26.4122 294.5233  1.00265559  3301
COSMOS 2584 (704K)      
1 63130U 25042A   26002.49240527 -.00000021  00000+0  00000+0 0  9991
2 63130  64.9870  78.4388 0007806 223.2470 136.7418  2.13102927  6517
GPS BIII-8  (PRN 21)    
1 64202U 25116A   26003.16695772 -.00000060  00000+0  00000+0 0  9998
2 64202  55.1218  37.7755 0006374 312.4265 128.7127  2.00556607  4569
COSMOS 2596 (708K)      
1 65590U 25206B   26003.03855066 -.00000067  00000+0  00000+0 0  9996
2 65590  64.7318 320.7343 0013935 308.4597 228.7685  2.13099992  2391
GALILEO A               
1 67160U 25302A   25352.14605887 -.00000007  00000+0  00000+0 0  9994
2 67160  54.2406 107.2544 0008423 237.6458 122.2317  1.72906186    28
GALILEO B               
1 67161U 25302B   25365.44232658 -.00000018  00000+0  00000+0 0  9996
2 67161  54.2329 106.8331 0006490 266.0500  93.8527  1.72971438   262
