DMSP 5D-3 F16 (USA 172) 
1 28054U 03048A   25363.54642542  .00000208  00000+0  13249-3 0  9996
2 28054  99.0036  21.1347 0006254 266.7374 206.7623 14.14430622145506
METEOSAT-9 (MSG-2)      
1 28912U 05049B   25362.76340441  .00000141  00000+0  00000+0 0  9991
2 28912   8.9725  55.8218 0008218 266.0164  95.9763  1.00269990  5299
DMSP 5D-3 F17 (USA 191) 
1 29522U 06050A   25363.45933933  .00000259  00000+0  15646-3 0  9999
2 29522  98.7393   8.5003 0010170 175.5993 184.5271 14.14927478988410
FENGYUN 3A              
1 32958U 08026A   25363.46126476  .00000169  00000+0  10072-3 0  9996
2 32958  98.6718 302.6377 0007622 255.8710 104.1620 14.19520287911320
GOES 14                 
1 35491U 09033A   25363.35947443  .00000052  00000+0  00000+0 0  9990
2 35491   1.2453  85.2200 0000927 197.9761 184.0579  1.00097262  4896
DMSP 5D-3 F18 (USA 210) 
1 35951U 09057A   25363.48710767  .00000418  00000+0  23983-3 0  9993
2 35951  98.8854 339.8058 0011512  18.1844 341.9739 14.14781242835599
EWS-G2 (GOES 15)        
1 36411U 10008A   25363.47987345  .00000059  00000+0  00000+0 0  9992
2 36411   0.8530  86.0608 0005786 181.1205  65.0927  1.00270938 57938
COMS 1                  
1 36744U 10032A   25363.49304686 -.00000326  00000+0  00000+0 0  9999
2 36744   4.3788  77.7992 0001110 210.4769 115.5903  1.00271010 49389
FENGYUN 3B              
1 37214U 10059A   25363.58716227  .00000047  00000+0  47983-4 0  9994
2 37214  98.9890  43.6806 0021321 309.3490 165.8825 14.14794343783447
SUOMI NPP               
1 37849U 11061A   25362.05962372  .00000143  00000+0  88814-4 0  9992
2 37849  98.7792 299.2646 0002551  94.1342 266.0125 14.19518897734165
METEOSAT-10 (MSG-3)     
1 38552U 12035B   25363.32508579  .00000012  00000+0  00000+0 0  9993
2 38552   4.2661  61.6754 0001643 261.1081 252.4866  1.00266853 49159
METOP-B                 
1 38771U 12049A   25363.40558869  .00000195  00000+0  10915-3 0  9999
2 38771  98.6777  53.0800 0003335 109.7515 250.4022 14.21415077689145
INSAT-3D                
1 39216U 13038B   25363.49330686 -.00000318  00000+0  00000+0 0  9995
2 39216   1.4866  84.7968 0002079 162.0350 158.5133  1.00271513 45370
FENGYUN 3C              
1 39260U 13052A   25363.56571414  .00000193  00000+0  11917-3 0  9997
2 39260  98.4782 340.4250 0015197 147.9038 212.3065 14.15701875634565
METEOR-M 2              
1 40069U 14037A   25363.50202914  .00000351  00000+0  17975-3 0  9996
2 40069  98.4922 340.4458 0005878 158.8208 201.3214 14.21393653595215
HIMAWARI-8              
1 40267U 14060A   25363.42423308 -.00000254  00000+0  00000+0 0  9995
2 40267   0.0165 248.6167 0001185  30.8189 112.0792  1.00271165 41056
FENGYUN 2G              
1 40367U 14090A   25363.11637726 -.00000284  00000+0  00000+0 0  9999
2 40367   5.2065  74.8969 0002004 172.5142 351.6739  1.00279934 40295
METEOSAT-11 (MSG-4)     
1 40732U 15034A   25363.32664580  .00000081  00000+0  00000+0 0  9999
2 40732   2.7778  71.9558 0000597 135.2230  17.6340  1.00272683  5512
ELEKTRO-L 2             
1 41105U 15074A   25363.39346623 -.00000100  00000+0  00000+0 0  9993
2 41105   6.2651  72.6301 0003937 206.8464 305.7916  1.00271204 36809
INSAT-3DR               
1 41752U 16054A   25363.48238681 -.00000055  00000+0  00000+0 0  9993
2 41752   0.0484  86.1227 0014521 186.3212  73.3861  1.00271194 34111
HIMAWARI-9              
1 41836U 16064A   25363.02143287 -.00000253  00000+0  00000+0 0  9994
2 41836   0.0214  88.2015 0000935 196.8426 321.1745  1.00270360 33501
GOES 16                 
1 41866U 16071A   25363.29975394 -.00000069  00000+0  00000+0 0  9991
2 41866   0.0787 101.0761 0004343 132.9363 227.2653  1.00269928 33400
FENGYUN 4A              
1 41882U 16077A   25363.53100462 -.00000337  00000+0  00000+0 0  9996
2 41882   1.8893  82.2377 0005452 133.5974 197.2128  1.00278282 33221
CYGFM05                 
1 41884U 16078A   25363.24953793  .00028895  00000+0  52851-3 0  9993
2 41884  34.9599 299.2366 0009898 325.0500  34.9571 15.48308819502320
CYGFM04                 
1 41885U 16078B   25363.17721348  .00032358  00000+0  53566-3 0  9998
2 41885  34.9345 274.0035 0008302 349.9824  10.0732 15.51121859502490
CYGFM02                 
1 41886U 16078C   25363.15998860  .00035123  00000+0  55163-3 0  9990
2 41886  34.9432 272.2262 0009925 351.9084   8.1477 15.52554168502626
CYGFM01                 
1 41887U 16078D   25363.10641072  .00029443  00000+0  52742-3 0  9994
2 41887  34.9428 302.4050 0009815 315.7111  44.2825 15.48898412502244
CYGFM08                 
1 41888U 16078E   25363.14917508  .00031564  00000+0  54045-3 0  9994
2 41888  34.9458 284.9214 0010688 341.0096  19.0227 15.50154285502486
CYGFM07                 
1 41890U 16078G   25363.14511593  .00032174  00000+0  53969-3 0  9993
2 41890  34.9470 273.8357 0008520 355.9816   4.0837 15.50752284502501
CYGFM03                 
1 41891U 16078H   25363.17577000  .00031998  00000+0  53877-3 0  9993
2 41891  34.9425 275.5638 0008404 342.1271  17.9155 15.50647678502480
FENGYUN 3D              
1 43010U 17072A   25363.51191403  .00000011  00000+0  26750-4 0  9993
2 43010  98.9916 330.0752 0001749 138.3527 221.7781 14.19689129420916
NOAA 20 (JPSS-1)        
1 43013U 17073A   25363.48402625  .00000145  00000+0  89844-4 0  9995
2 43013  98.7618 299.5993 0001989  63.2623 296.8756 14.19530700420398
GOES 17                 
1 43226U 18022A   25363.47058838 -.00000161  00000+0  00000+0 0  9999
2 43226   0.4993  88.9335 0003321 191.9304 257.2194  1.00271260 28724
FENGYUN 2H              
1 43491U 18050A   25363.48342682 -.00000109  00000+0  00000+0 0  9990
2 43491   2.5916  81.1545 0002688 168.1952 102.1735  1.00269451 27732
METOP-C                 
1 43689U 18087A   25363.43340513  .00000196  00000+0  10962-3 0  9992
2 43689  98.6907  60.9451 0000406   4.3255 355.7926 14.21491164370713
GEO-KOMPSAT-2A          
1 43823U 18100A   25363.49304686 -.00000322  00000+0  00000+0 0  9995
2 43823   0.0447 151.4611 0000194 308.1519 304.3334  1.00271163 25926
METEOR-M2 2             
1 44387U 19038A   25363.52651354  .00000105  00000+0  65238-4 0  9990
2 44387  98.8992 343.4625 0001935 116.6153 243.5223 14.24298598337142
ARKTIKA-M 1             
1 47719U 21016A   25361.03031895 -.00000046  00000+0  00000+0 0  9993
2 47719  63.1774  82.0436 7211282 269.1745  15.5297  2.00630341 35330
FENGYUN 3E              
1 49008U 21062A   25363.51620147 -.00000084  00000+0 -18659-4 0  9993
2 49008  98.7485   3.8390 0001149 174.0644 186.0546 14.19881655232508
GOES 18                 
1 51850U 22021A   25363.44052653  .00000118  00000+0  00000+0 0  9992
2 51850   0.0180 195.4458 0000557 110.9544 173.3232  1.00270100  4890
NOAA 21 (JPSS-2)        
1 54234U 22150A   25363.44864875  .00000151  00000+0  92253-4 0  9994
2 54234  98.7481 299.5501 0001427   2.2664 357.8518 14.19529220162463
METEOSAT-12 (MTG-I1)    
1 54743U 22170C   25363.32491244  .00000014  00000+0  00000+0 0  9996
2 54743   0.7050  26.3949 0001872 243.6675 304.6025  1.00271071 11271
TIANMU-1 03             
1 55973U 23039A   25363.50805476  .00023041  00000+0  55149-3 0  9996
2 55973  97.5108 166.6340 0003558  10.9133 349.2190 15.41455331154645
TIANMU-1 04             
1 55974U 23039B   25363.48379900  .00024184  00000+0  57201-3 0  9992
2 55974  97.5041 165.7933 0004176   3.2630 356.8643 15.41800832154641
TIANMU-1 05             
1 55975U 23039C   25363.48222197  .00023596  00000+0  56550-3 0  9990
2 55975  97.5088 166.2847 0003755  30.7310 329.4155 15.41409978154623
TIANMU-1 06             
1 55976U 23039D   25363.48541600  .00024179  00000+0  57095-3 0  9997
2 55976  97.5098 166.7669 0003994  24.2237 335.9197 15.41851373154643
FENGYUN 3G              
1 56232U 23055A   25363.51325003  .00042314  00000+0  68398-3 0  9991
2 56232  49.9926 140.9284 0004029 309.8974  50.1638 15.52370083153637
METEOR-M2 3             
1 57166U 23091A   25363.55466773  .00000025  00000+0  29962-4 0  9990
2 57166  98.6354  56.7985 0003078 314.2072  45.8854 14.24028216130377
TIANMU-1 07             
1 57399U 23101A   25363.48890777  .00011843  00000+0  43153-3 0  9994
2 57399  97.2861  52.9697 0004681  37.4348 322.7217 15.28328200135716
TIANMU-1 08             
1 57400U 23101B   25363.52152432  .00011040  00000+0  40257-3 0  9992
2 57400  97.2850  52.7966 0006615  35.5354 324.6325 15.28309813135719
TIANMU-1 09             
1 57401U 23101C   25363.50794394  .00011666  00000+0  42478-3 0  9991
2 57401  97.2807  52.2880 0005880  36.8322 323.3321 15.28347794135716
TIANMU-1 10             
1 57402U 23101D   25363.47676794  .00011823  00000+0  43042-3 0  9994
2 57402  97.2887  53.1251 0007588  33.7691 326.4030 15.28339569135700
FENGYUN 3F              
1 57490U 23111A   25363.50312528  .00000122  00000+0  78206-4 0  9999
2 57490  98.7061  71.5244 0000910 118.5929 241.5339 14.19898288124783
ARKTIKA-M 2             
1 58584U 23198A   25362.77992685  .00000238  00000+0  00000+0 0  9995
2 58584  63.2250 173.1459 6866444 268.0397  18.8424  2.00602005 14909
TIANMU-1 11             
1 58645U 23205A   25363.54805868  .00009812  00000+0  39774-3 0  9995
2 58645  97.3601  22.8769 0007717 238.1901 121.8586 15.24818030111653
TIANMU-1 12             
1 58646U 23205B   25363.51063808  .00009549  00000+0  38855-3 0  9999
2 58646  97.3589  22.6401 0006317 216.1859 143.8952 15.24706915111630
TIANMU-1 13             
1 58647U 23205C   25363.54371101  .00010327  00000+0  41930-3 0  9995
2 58647  97.3617  22.8808 0007102 195.7845 164.3173 15.24750878111636
TIANMU-1 14             
1 58648U 23205D   25363.52729903  .00009862  00000+0  40073-3 0  9990
2 58648  97.3549  22.1978 0007767 201.7365 158.3544 15.24733017111635
TIANMU-1 19             
1 58660U 23208A   25363.50918457  .00014572  00000+0  53257-3 0  9991
2 58660  97.4382 114.5162 0005099 184.1390 175.9808 15.28181675111385
TIANMU-1 20             
1 58661U 23208B   25363.54807725  .00014505  00000+0  51106-3 0  9998
2 58661  97.4319 115.0192 0007096 198.2345 161.8641 15.29372518111467
TIANMU-1 21             
1 58662U 23208C   25363.51940309  .00017333  00000+0  56357-3 0  9997
2 58662  97.4368 116.9748 0006707 192.5636 167.5439 15.31941839111567
TIANMU-1 22             
1 58663U 23208D   25363.51177748  .00013708  00000+0  50543-3 0  9990
2 58663  97.4376 114.5700 0003246 204.9483 155.1600 15.27912180111398
TIANMU-1 15             
1 58700U 24004A   25363.52359635  .00011114  00000+0  45250-3 0  9993
2 58700  97.4630 184.9306 0006261 219.4547 140.6236 15.24650599109906
TIANMU-1 16             
1 58701U 24004B   25363.50843973  .00011343  00000+0  46146-3 0  9994
2 58701  97.4570 184.2910 0004571 220.2068 139.8832 15.24679402109900
TIANMU-1 17             
1 58702U 24004C   25363.55818566  .00010315  00000+0  41943-3 0  9998
2 58702  97.4604 184.7592 0003740 219.8380 140.2583 15.24722267109905
TIANMU-1 18             
1 58703U 24004D   25363.54167617  .00010419  00000+0  42391-3 0  9995
2 58703  97.4620 184.9417 0003177 216.4886 143.6135 15.24701838109901
INSAT-3DS               
1 58990U 24033A   25363.41261969 -.00000134  00000+0  00000+0 0  9997
2 58990   0.0704  97.4159 0001482 179.5190  51.8206  1.00270285 45361
METEOR-M2 4             
1 59051U 24039A   25363.51721025  .00000077  00000+0  54143-4 0  9994
2 59051  98.6790 320.1650 0006215 307.1523  52.9087 14.22404168 95145
GOES 19                 
1 60133U 24119A   25363.47614325 -.00000227  00000+0  00000+0 0  9991
2 60133   0.0284 147.0967 0001121 169.2792 238.0188  1.00271494  5265
FENGYUN 3H              
1 65815U 25219A   25363.42946375  .00000157  00000+0  94100-4 0  9993
2 65815  98.6605 302.6591 0000934 110.4976 249.6301 14.19909650 13295
